[
  {
    "postalCode": 6314270016,
    "address": "665 Lake Avenue, Freeburn, Virgin Islands, 4743",
    "city": "Joes",
    "state": "Delaware"
  },
  {
    "postalCode": 4100034033,
    "address": "192 Beard Street, Saticoy, Guam, 6399",
    "city": "Dundee",
    "state": "Illinois"
  },
  {
    "postalCode": 6961081891,
    "address": "195 Anna Court, Keyport, Maine, 3435",
    "city": "Riegelwood",
    "state": "American Samoa"
  },
  {
    "postalCode": 8302359589,
    "address": "282 Apollo Street, Avalon, South Dakota, 5786",
    "city": "Hannasville",
    "state": "Wisconsin"
  },
  {
    "postalCode": 6516900838,
    "address": "730 Loring Avenue, Waterford, North Carolina, 9873",
    "city": "Cassel",
    "state": "Wyoming"
  },
  {
    "postalCode": 2234199773,
    "address": "482 Grant Avenue, Stonybrook, Michigan, 5157",
    "city": "Roderfield",
    "state": "New Hampshire"
  },
  {
    "postalCode": 2223553980,
    "address": "866 Lafayette Walk, Bath, Utah, 795",
    "city": "Vernon",
    "state": "Vermont"
  },
  {
    "postalCode": 1915950629,
    "address": "298 Oakland Place, Epworth, Nebraska, 858",
    "city": "Englevale",
    "state": "Virginia"
  },
  {
    "postalCode": 1876455135,
    "address": "692 Riverdale Avenue, Mappsville, Montana, 6337",
    "city": "Berlin",
    "state": "Texas"
  },
  {
    "postalCode": 1376339653,
    "address": "466 Varick Street, Remington, Oklahoma, 1874",
    "city": "Summerset",
    "state": "Puerto Rico"
  },
  {
    "postalCode": 9143564050,
    "address": "692 Bijou Avenue, Fairmount, Louisiana, 1297",
    "city": "Wedgewood",
    "state": "Mississippi"
  },
  {
    "postalCode": 9012493913,
    "address": "573 Stone Avenue, Neahkahnie, Nevada, 2682",
    "city": "Frierson",
    "state": "Arizona"
  },
  {
    "postalCode": 6335156040,
    "address": "179 Woods Place, Gadsden, Rhode Island, 9780",
    "city": "Gambrills",
    "state": "North Dakota"
  },
  {
    "postalCode": 3365631815,
    "address": "532 Bank Street, Farmington, Ohio, 781",
    "city": "Coldiron",
    "state": "Washington"
  },
  {
    "postalCode": 9221739781,
    "address": "481 Amherst Street, Chicopee, Minnesota, 5248",
    "city": "National",
    "state": "Alabama"
  },
  {
    "postalCode": 8025368777,
    "address": "261 Luquer Street, Rushford, New York, 256",
    "city": "Brewster",
    "state": "Maryland"
  },
  {
    "postalCode": 2069055977,
    "address": "547 Eckford Street, Leroy, Idaho, 1907",
    "city": "Fostoria",
    "state": "Massachusetts"
  },
  {
    "postalCode": 5258122711,
    "address": "608 Dupont Street, Caspar, Northern Mariana Islands, 4335",
    "city": "Driftwood",
    "state": "Colorado"
  },
  {
    "postalCode": 7283827782,
    "address": "552 Crystal Street, Chical, Marshall Islands, 3282",
    "city": "Vallonia",
    "state": "Connecticut"
  },
  {
    "postalCode": 1961407971,
    "address": "773 Congress Street, Dexter, California, 8681",
    "city": "Groveville",
    "state": "Oregon"
  },
  {
    "postalCode": 2613853124,
    "address": "313 Harrison Place, Hailesboro, Arkansas, 9694",
    "city": "Nescatunga",
    "state": "New Jersey"
  },
  {
    "postalCode": 2630623641,
    "address": "688 Ludlam Place, Madrid, Indiana, 7623",
    "city": "Eggertsville",
    "state": "Federated States Of Micronesia"
  },
  {
    "postalCode": 3265060168,
    "address": "502 Kenilworth Place, Logan, Kentucky, 190",
    "city": "Hackneyville",
    "state": "Florida"
  },
  {
    "postalCode": 3308209641,
    "address": "758 Lefferts Place, Hampstead, Missouri, 7876",
    "city": "Nicut",
    "state": "Hawaii"
  },
  {
    "postalCode": 3390338899,
    "address": "473 Tennis Court, Moraida, District Of Columbia, 8129",
    "city": "Bluetown",
    "state": "Georgia"
  },
  {
    "postalCode": 5618531059,
    "address": "575 Henry Street, Vale, Palau, 2097",
    "city": "Winston",
    "state": "West Virginia"
  },
  {
    "postalCode": 7198767247,
    "address": "558 Locust Avenue, Frank, Pennsylvania, 1909",
    "city": "Malo",
    "state": "New Mexico"
  },
  {
    "postalCode": 1261518965,
    "address": "988 Albemarle Terrace, Loma, Alaska, 5363",
    "city": "Curtice",
    "state": "Tennessee"
  },
  {
    "postalCode": 2674904240,
    "address": "596 Lawn Court, Norris, Iowa, 3881",
    "city": "Corinne",
    "state": "South Carolina"
  },
  {
    "postalCode": 7592281063,
    "address": "580 Brigham Street, Warren, Virgin Islands, 2042",
    "city": "Maplewood",
    "state": "Delaware"
  },
  {
    "postalCode": 9016650886,
    "address": "901 Dictum Court, Barstow, Guam, 7180",
    "city": "Leming",
    "state": "Illinois"
  },
  {
    "postalCode": 9407359999,
    "address": "339 Sedgwick Street, Ilchester, Maine, 6544",
    "city": "Sehili",
    "state": "American Samoa"
  },
  {
    "postalCode": 1256567532,
    "address": "560 Ridgecrest Terrace, Fulford, South Dakota, 3528",
    "city": "Bison",
    "state": "Wisconsin"
  },
  {
    "postalCode": 3846953264,
    "address": "770 Montieth Street, Greenbush, North Carolina, 8004",
    "city": "Rutherford",
    "state": "Wyoming"
  },
  {
    "postalCode": 9396240032,
    "address": "359 Debevoise Avenue, Trucksville, Michigan, 8101",
    "city": "Faxon",
    "state": "New Hampshire"
  },
  {
    "postalCode": 1409567551,
    "address": "345 Hegeman Avenue, Broadlands, Utah, 4073",
    "city": "Carlton",
    "state": "Vermont"
  },
  {
    "postalCode": 9963718907,
    "address": "166 Ellery Street, Woodburn, Nebraska, 3793",
    "city": "Greenock",
    "state": "Virginia"
  },
  {
    "postalCode": 2373765745,
    "address": "225 Howard Alley, Enoree, Montana, 3193",
    "city": "Fivepointville",
    "state": "Texas"
  },
  {
    "postalCode": 2057440508,
    "address": "881 Concord Street, Welda, Oklahoma, 1728",
    "city": "Tivoli",
    "state": "Puerto Rico"
  },
  {
    "postalCode": 9648886793,
    "address": "361 Nassau Avenue, Hardyville, Louisiana, 3187",
    "city": "Starks",
    "state": "Mississippi"
  },
  {
    "postalCode": 4050283767,
    "address": "767 Havemeyer Street, Cleary, Nevada, 2835",
    "city": "Stewart",
    "state": "Arizona"
  },
  {
    "postalCode": 5334147889,
    "address": "265 Shale Street, Canoochee, Rhode Island, 1548",
    "city": "Unionville",
    "state": "North Dakota"
  },
  {
    "postalCode": 7833575986,
    "address": "895 Norfolk Street, Soudan, Ohio, 3388",
    "city": "Jamestown",
    "state": "Washington"
  },
  {
    "postalCode": 1603203587,
    "address": "429 Hewes Street, Davenport, Minnesota, 102",
    "city": "Trail",
    "state": "Alabama"
  },
  {
    "postalCode": 4591662328,
    "address": "834 Albemarle Road, Dante, New York, 557",
    "city": "Kingstowne",
    "state": "Maryland"
  },
  {
    "postalCode": 1862503483,
    "address": "704 Greenwood Avenue, Longbranch, Idaho, 826",
    "city": "Blodgett",
    "state": "Massachusetts"
  },
  {
    "postalCode": 8030171367,
    "address": "265 Lloyd Street, Dawn, Northern Mariana Islands, 736",
    "city": "Advance",
    "state": "Colorado"
  },
  {
    "postalCode": 3522342551,
    "address": "710 Barwell Terrace, Rossmore, Marshall Islands, 1151",
    "city": "Williams",
    "state": "Connecticut"
  },
  {
    "postalCode": 1611574725,
    "address": "404 Bulwer Place, Rosewood, California, 7311",
    "city": "Gordon",
    "state": "Oregon"
  },
  {
    "postalCode": 8629177098,
    "address": "963 Ivan Court, Dotsero, Arkansas, 6411",
    "city": "Greenfields",
    "state": "New Jersey"
  },
  {
    "postalCode": 9428352486,
    "address": "599 Harman Street, Trona, Indiana, 5585",
    "city": "Chapin",
    "state": "Federated States Of Micronesia"
  },
  {
    "postalCode": 5027787357,
    "address": "375 Bedford Avenue, Kula, Kentucky, 8080",
    "city": "Sunnyside",
    "state": "Florida"
  },
  {
    "postalCode": 9936319449,
    "address": "706 Portal Street, Bethany, Missouri, 6938",
    "city": "Canterwood",
    "state": "Hawaii"
  },
  {
    "postalCode": 7528188114,
    "address": "828 Cheever Place, Lookingglass, District Of Columbia, 1325",
    "city": "Cumminsville",
    "state": "Georgia"
  },
  {
    "postalCode": 7521476118,
    "address": "147 Herkimer Place, Accoville, Palau, 800",
    "city": "Vaughn",
    "state": "West Virginia"
  },
  {
    "postalCode": 9432313641,
    "address": "464 Etna Street, Guilford, Pennsylvania, 7963",
    "city": "Sugartown",
    "state": "New Mexico"
  },
  {
    "postalCode": 4943926525,
    "address": "462 Pine Street, Terlingua, Alaska, 2356",
    "city": "Moscow",
    "state": "Tennessee"
  },
  {
    "postalCode": 4158888966,
    "address": "202 Baycliff Terrace, Juarez, Iowa, 5225",
    "city": "Vowinckel",
    "state": "South Carolina"
  },
  {
    "postalCode": 4182239910,
    "address": "759 Dodworth Street, Wawona, Virgin Islands, 8031",
    "city": "Savage",
    "state": "Delaware"
  },
  {
    "postalCode": 6235848421,
    "address": "871 Argyle Road, Chilton, Guam, 3819",
    "city": "Greenwich",
    "state": "Illinois"
  },
  {
    "postalCode": 6907063713,
    "address": "127 Linden Street, Dowling, Maine, 5951",
    "city": "Tooleville",
    "state": "American Samoa"
  },
  {
    "postalCode": 6528518518,
    "address": "538 Atkins Avenue, Westerville, South Dakota, 9547",
    "city": "Catherine",
    "state": "Wisconsin"
  },
  {
    "postalCode": 8537946663,
    "address": "697 Columbia Place, Roulette, North Carolina, 4502",
    "city": "Yettem",
    "state": "Wyoming"
  },
  {
    "postalCode": 1470111022,
    "address": "281 Ross Street, Salunga, Michigan, 9067",
    "city": "Robinson",
    "state": "New Hampshire"
  },
  {
    "postalCode": 5195039780,
    "address": "798 Emerson Place, Suitland, Utah, 8987",
    "city": "Hayden",
    "state": "Vermont"
  },
  {
    "postalCode": 3995671207,
    "address": "817 Keap Street, Zortman, Nebraska, 7963",
    "city": "Carrsville",
    "state": "Virginia"
  },
  {
    "postalCode": 6605182859,
    "address": "236 Cameron Court, Silkworth, Montana, 5145",
    "city": "Snyderville",
    "state": "Texas"
  },
  {
    "postalCode": 3441340027,
    "address": "149 Cobek Court, Sperryville, Oklahoma, 6172",
    "city": "Morningside",
    "state": "Puerto Rico"
  },
  {
    "postalCode": 1853148699,
    "address": "956 Summit Street, Whitmer, Louisiana, 8381",
    "city": "Hoagland",
    "state": "Mississippi"
  },
  {
    "postalCode": 7353602078,
    "address": "118 King Street, Riviera, Nevada, 2249",
    "city": "Crayne",
    "state": "Arizona"
  },
  {
    "postalCode": 2985720134,
    "address": "803 Atlantic Avenue, Gibbsville, Rhode Island, 8847",
    "city": "Manila",
    "state": "North Dakota"
  },
  {
    "postalCode": 6275002950,
    "address": "913 Madeline Court, Grill, Ohio, 8368",
    "city": "Wheatfields",
    "state": "Washington"
  },
  {
    "postalCode": 1593653623,
    "address": "219 Bayard Street, Chemung, Minnesota, 6945",
    "city": "Fillmore",
    "state": "Alabama"
  },
  {
    "postalCode": 4472146513,
    "address": "473 Gaylord Drive, Mammoth, New York, 1663",
    "city": "Barclay",
    "state": "Maryland"
  },
  {
    "postalCode": 8356745586,
    "address": "485 Junius Street, Roland, Idaho, 5590",
    "city": "Goldfield",
    "state": "Massachusetts"
  },
  {
    "postalCode": 4671458696,
    "address": "215 Bartlett Place, Virgie, Northern Mariana Islands, 2441",
    "city": "Emerald",
    "state": "Colorado"
  },
  {
    "postalCode": 4832524686,
    "address": "657 Windsor Place, Crucible, Marshall Islands, 5726",
    "city": "Bowden",
    "state": "Connecticut"
  },
  {
    "postalCode": 1801478187,
    "address": "384 Caton Place, Denio, California, 5978",
    "city": "Albany",
    "state": "Oregon"
  },
  {
    "postalCode": 2068817207,
    "address": "849 Remsen Street, Henrietta, Arkansas, 938",
    "city": "Bartley",
    "state": "New Jersey"
  },
  {
    "postalCode": 5361100016,
    "address": "829 Buffalo Avenue, Whitehaven, Indiana, 5136",
    "city": "Dorneyville",
    "state": "Federated States Of Micronesia"
  },
  {
    "postalCode": 1775596797,
    "address": "808 Seagate Avenue, Marshall, Kentucky, 3286",
    "city": "Whitestone",
    "state": "Florida"
  },
  {
    "postalCode": 8940218267,
    "address": "557 Folsom Place, Newkirk, Missouri, 3972",
    "city": "Takilma",
    "state": "Hawaii"
  },
  {
    "postalCode": 6655248509,
    "address": "967 Estate Road, Hinsdale, District Of Columbia, 1572",
    "city": "Chestnut",
    "state": "Georgia"
  },
  {
    "postalCode": 6522260554,
    "address": "431 Dikeman Street, Northchase, Palau, 2586",
    "city": "Blackgum",
    "state": "West Virginia"
  },
  {
    "postalCode": 4780815407,
    "address": "826 Dahl Court, Dragoon, Pennsylvania, 871",
    "city": "Laurelton",
    "state": "New Mexico"
  },
  {
    "postalCode": 9679566669,
    "address": "832 Ocean Parkway, Strong, Alaska, 6768",
    "city": "Villarreal",
    "state": "Tennessee"
  },
  {
    "postalCode": 9216780750,
    "address": "617 Gerry Street, Elwood, Iowa, 9575",
    "city": "Enetai",
    "state": "South Carolina"
  },
  {
    "postalCode": 2043297541,
    "address": "673 Llama Court, Winchester, Virgin Islands, 8922",
    "city": "Sanders",
    "state": "Delaware"
  },
  {
    "postalCode": 2029927958,
    "address": "847 Pierrepont Street, Osmond, Guam, 3805",
    "city": "Marbury",
    "state": "Illinois"
  },
  {
    "postalCode": 5233777355,
    "address": "433 Hamilton Avenue, Linganore, Maine, 6946",
    "city": "Muse",
    "state": "American Samoa"
  },
  {
    "postalCode": 1196480781,
    "address": "609 Kimball Street, Westboro, South Dakota, 3774",
    "city": "Comptche",
    "state": "Wisconsin"
  },
  {
    "postalCode": 1154309175,
    "address": "528 Portland Avenue, Marenisco, North Carolina, 2296",
    "city": "Choctaw",
    "state": "Wyoming"
  },
  {
    "postalCode": 8942067504,
    "address": "366 Evans Street, Mahtowa, Michigan, 367",
    "city": "Jeff",
    "state": "New Hampshire"
  },
  {
    "postalCode": 3111198696,
    "address": "321 Vanderbilt Avenue, Springhill, Utah, 3993",
    "city": "Clarksburg",
    "state": "Vermont"
  },
  {
    "postalCode": 7873954347,
    "address": "431 Bushwick Place, Newcastle, Nebraska, 1952",
    "city": "Stagecoach",
    "state": "Virginia"
  },
  {
    "postalCode": 9625883651,
    "address": "253 Bay Avenue, Edgewater, Montana, 9440",
    "city": "Emory",
    "state": "Texas"
  },
  {
    "postalCode": 2479346581,
    "address": "657 Veranda Place, Kenwood, Oklahoma, 2395",
    "city": "Wyano",
    "state": "Puerto Rico"
  },
  {
    "postalCode": 7125284443,
    "address": "677 Beach Place, Interlochen, Louisiana, 2532",
    "city": "Temperanceville",
    "state": "Mississippi"
  },
  {
    "postalCode": 2432318514,
    "address": "234 Hanover Place, Belgreen, Nevada, 1941",
    "city": "Carrizo",
    "state": "Arizona"
  },
  {
    "postalCode": 8939020728,
    "address": "667 Linden Boulevard, Wintersburg, Rhode Island, 7360",
    "city": "Disautel",
    "state": "North Dakota"
  },
  {
    "postalCode": 1454902303,
    "address": "102 Dennett Place, Bangor, Ohio, 8877",
    "city": "Tryon",
    "state": "Washington"
  },
  {
    "postalCode": 4116062276,
    "address": "114 Narrows Avenue, Shelby, Minnesota, 4780",
    "city": "Balm",
    "state": "Alabama"
  },
  {
    "postalCode": 4761563490,
    "address": "448 Seabring Street, Spelter, New York, 5550",
    "city": "Coral",
    "state": "Maryland"
  },
  {
    "postalCode": 8565453660,
    "address": "507 Hale Avenue, Brantleyville, Idaho, 2807",
    "city": "Charco",
    "state": "Massachusetts"
  },
  {
    "postalCode": 9742630642,
    "address": "738 Metropolitan Avenue, Beaverdale, Northern Mariana Islands, 9114",
    "city": "Lund",
    "state": "Colorado"
  },
  {
    "postalCode": 1477602149,
    "address": "453 Sharon Street, Hartsville/Hartley, Marshall Islands, 4333",
    "city": "Fairforest",
    "state": "Connecticut"
  },
  {
    "postalCode": 6078704756,
    "address": "605 Bliss Terrace, Taft, California, 219",
    "city": "Woodruff",
    "state": "Oregon"
  },
  {
    "postalCode": 1324839637,
    "address": "861 Glenwood Road, Nipinnawasee, Arkansas, 3644",
    "city": "Edmund",
    "state": "New Jersey"
  },
  {
    "postalCode": 1751537924,
    "address": "349 Stuyvesant Avenue, Farmers, Indiana, 9379",
    "city": "Cornfields",
    "state": "Federated States Of Micronesia"
  },
  {
    "postalCode": 2920285980,
    "address": "684 Wythe Place, Topanga, Kentucky, 4428",
    "city": "Santel",
    "state": "Florida"
  },
  {
    "postalCode": 7893121552,
    "address": "956 Wyckoff Street, Guthrie, Missouri, 3098",
    "city": "Glenbrook",
    "state": "Hawaii"
  },
  {
    "postalCode": 6797107184,
    "address": "541 Trucklemans Lane, Edenburg, District Of Columbia, 7296",
    "city": "Dunnavant",
    "state": "Georgia"
  },
  {
    "postalCode": 1866470783,
    "address": "948 Nichols Avenue, Waikele, Palau, 7421",
    "city": "Stollings",
    "state": "West Virginia"
  },
  {
    "postalCode": 3972267699,
    "address": "721 Pioneer Street, Jenkinsville, Pennsylvania, 1512",
    "city": "Tedrow",
    "state": "New Mexico"
  },
  {
    "postalCode": 6360840281,
    "address": "142 Adler Place, Bannock, Alaska, 6879",
    "city": "Sabillasville",
    "state": "Tennessee"
  },
  {
    "postalCode": 1829443738,
    "address": "447 Douglass Street, Sharon, Iowa, 5727",
    "city": "Cloverdale",
    "state": "South Carolina"
  },
  {
    "postalCode": 7990109346,
    "address": "363 Wolf Place, Norwood, Virgin Islands, 9564",
    "city": "Condon",
    "state": "Delaware"
  },
  {
    "postalCode": 8190438439,
    "address": "285 Bushwick Court, Harleigh, Guam, 3286",
    "city": "Trexlertown",
    "state": "Illinois"
  },
  {
    "postalCode": 8686589916,
    "address": "884 Arion Place, Benson, Maine, 6237",
    "city": "Hillsboro",
    "state": "American Samoa"
  },
  {
    "postalCode": 9991459044,
    "address": "586 Desmond Court, Bourg, South Dakota, 4370",
    "city": "Foxworth",
    "state": "Wisconsin"
  },
  {
    "postalCode": 3688324586,
    "address": "791 Macon Street, Umapine, North Carolina, 8227",
    "city": "Cazadero",
    "state": "Wyoming"
  },
  {
    "postalCode": 8191895871,
    "address": "819 Williams Court, Leland, Michigan, 8877",
    "city": "Elliston",
    "state": "New Hampshire"
  },
  {
    "postalCode": 9932688409,
    "address": "645 Chauncey Street, Kiskimere, Utah, 6766",
    "city": "Baden",
    "state": "Vermont"
  },
  {
    "postalCode": 3372127174,
    "address": "325 Johnson Avenue, Catharine, Nebraska, 9942",
    "city": "Jacksonwald",
    "state": "Virginia"
  },
  {
    "postalCode": 4585215095,
    "address": "932 Highlawn Avenue, Mathews, Montana, 2003",
    "city": "Dellview",
    "state": "Texas"
  },
  {
    "postalCode": 4123696797,
    "address": "881 Colonial Court, Itmann, Oklahoma, 1498",
    "city": "Fresno",
    "state": "Puerto Rico"
  },
  {
    "postalCode": 9757240097,
    "address": "575 Neptune Court, Derwood, Louisiana, 6256",
    "city": "Harviell",
    "state": "Mississippi"
  },
  {
    "postalCode": 6979424892,
    "address": "989 Miami Court, Coventry, Nevada, 8476",
    "city": "Ada",
    "state": "Arizona"
  },
  {
    "postalCode": 6582595739,
    "address": "494 Emmons Avenue, Beyerville, Rhode Island, 7832",
    "city": "Detroit",
    "state": "North Dakota"
  },
  {
    "postalCode": 6020940387,
    "address": "802 Bayview Place, Emison, Ohio, 4560",
    "city": "Wheaton",
    "state": "Washington"
  },
  {
    "postalCode": 2257918871,
    "address": "763 Cozine Avenue, Adelino, Minnesota, 9133",
    "city": "Morgandale",
    "state": "Alabama"
  },
  {
    "postalCode": 4515193532,
    "address": "401 Abbey Court, Eagleville, New York, 6164",
    "city": "Ballico",
    "state": "Maryland"
  },
  {
    "postalCode": 4209593204,
    "address": "266 Seaview Court, Templeton, Idaho, 2669",
    "city": "Boykin",
    "state": "Massachusetts"
  },
  {
    "postalCode": 1235044725,
    "address": "872 Hyman Court, Loomis, Northern Mariana Islands, 1786",
    "city": "Homestead",
    "state": "Colorado"
  },
  {
    "postalCode": 2648521910,
    "address": "176 Duryea Place, Alden, Marshall Islands, 1668",
    "city": "Cresaptown",
    "state": "Connecticut"
  },
  {
    "postalCode": 2667641183,
    "address": "713 Martense Street, Tilleda, California, 1626",
    "city": "Hatteras",
    "state": "Oregon"
  },
  {
    "postalCode": 7137738484,
    "address": "827 Dooley Street, Worcester, Arkansas, 3969",
    "city": "Tioga",
    "state": "New Jersey"
  },
  {
    "postalCode": 9459423864,
    "address": "227 Anchorage Place, Beechmont, Indiana, 4107",
    "city": "Elbert",
    "state": "Federated States Of Micronesia"
  },
  {
    "postalCode": 7449518795,
    "address": "795 Kosciusko Street, Thomasville, Kentucky, 2532",
    "city": "Tibbie",
    "state": "Florida"
  },
  {
    "postalCode": 7303237159,
    "address": "497 Pitkin Avenue, Blanco, Missouri, 5739",
    "city": "Golconda",
    "state": "Hawaii"
  },
  {
    "postalCode": 6422902710,
    "address": "256 Homecrest Court, Ahwahnee, District Of Columbia, 4169",
    "city": "Ronco",
    "state": "Georgia"
  },
  {
    "postalCode": 6390915833,
    "address": "512 Kenmore Terrace, Lumberton, Palau, 917",
    "city": "Cascades",
    "state": "West Virginia"
  },
  {
    "postalCode": 2749510139,
    "address": "936 Dare Court, Soham, Pennsylvania, 2261",
    "city": "Century",
    "state": "New Mexico"
  },
  {
    "postalCode": 8860812745,
    "address": "910 Clove Road, Nash, Alaska, 1251",
    "city": "Rosedale",
    "state": "Tennessee"
  },
  {
    "postalCode": 6175109456,
    "address": "610 Withers Street, Ezel, Iowa, 3774",
    "city": "Gouglersville",
    "state": "South Carolina"
  },
  {
    "postalCode": 7309975613,
    "address": "206 Noble Street, Franklin, Virgin Islands, 2484",
    "city": "Bridgetown",
    "state": "Delaware"
  },
  {
    "postalCode": 8955232577,
    "address": "225 Bancroft Place, Diaperville, Guam, 4076",
    "city": "Outlook",
    "state": "Illinois"
  },
  {
    "postalCode": 5321995666,
    "address": "131 Paerdegat Avenue, Chloride, Maine, 4760",
    "city": "Waumandee",
    "state": "American Samoa"
  },
  {
    "postalCode": 6159384917,
    "address": "963 Ditmars Street, Brutus, South Dakota, 2258",
    "city": "Torboy",
    "state": "Wisconsin"
  },
  {
    "postalCode": 5087621146,
    "address": "942 Woodruff Avenue, Gloucester, North Carolina, 8565",
    "city": "Bentonville",
    "state": "Wyoming"
  },
  {
    "postalCode": 8317828686,
    "address": "900 Noel Avenue, Lloyd, Michigan, 5527",
    "city": "Gardners",
    "state": "New Hampshire"
  },
  {
    "postalCode": 3456381875,
    "address": "293 Broadway , Roosevelt, Utah, 8677",
    "city": "Cliff",
    "state": "Vermont"
  },
  {
    "postalCode": 7773605273,
    "address": "748 Voorhies Avenue, Fingerville, Nebraska, 7448",
    "city": "Stockwell",
    "state": "Virginia"
  },
  {
    "postalCode": 7406948619,
    "address": "460 Maple Street, Elliott, Montana, 3232",
    "city": "Camptown",
    "state": "Texas"
  },
  {
    "postalCode": 3262932078,
    "address": "150 Cook Street, Chalfant, Oklahoma, 8415",
    "city": "Thornport",
    "state": "Puerto Rico"
  },
  {
    "postalCode": 8226282421,
    "address": "935 Olive Street, Russellville, Louisiana, 8679",
    "city": "Geyserville",
    "state": "Mississippi"
  },
  {
    "postalCode": 7069570338,
    "address": "225 Ira Court, Walton, Nevada, 7021",
    "city": "Homeworth",
    "state": "Arizona"
  },
  {
    "postalCode": 5552555648,
    "address": "643 Whitney Avenue, Oberlin, Rhode Island, 6111",
    "city": "Evergreen",
    "state": "North Dakota"
  },
  {
    "postalCode": 9295249425,
    "address": "135 Tapscott Avenue, Calverton, Ohio, 2951",
    "city": "Healy",
    "state": "Washington"
  },
  {
    "postalCode": 5855276101,
    "address": "322 Sullivan Street, Blende, Minnesota, 5617",
    "city": "Marne",
    "state": "Alabama"
  },
  {
    "postalCode": 8779823966,
    "address": "534 Vernon Avenue, Ebro, New York, 5698",
    "city": "Herlong",
    "state": "Maryland"
  },
  {
    "postalCode": 6451969622,
    "address": "263 Burnett Street, Wollochet, Idaho, 9538",
    "city": "Finderne",
    "state": "Massachusetts"
  },
  {
    "postalCode": 6332159360,
    "address": "196 Senator Street, Rosburg, Northern Mariana Islands, 1106",
    "city": "Falconaire",
    "state": "Colorado"
  },
  {
    "postalCode": 8733330567,
    "address": "273 Mill Lane, Bartonsville, Marshall Islands, 5778",
    "city": "Wescosville",
    "state": "Connecticut"
  },
  {
    "postalCode": 8898333724,
    "address": "982 Eagle Street, Islandia, California, 7582",
    "city": "Blue",
    "state": "Oregon"
  },
  {
    "postalCode": 1732518058,
    "address": "783 Heyward Street, Naomi, Arkansas, 405",
    "city": "Robinette",
    "state": "New Jersey"
  },
  {
    "postalCode": 7807672311,
    "address": "158 Downing Street, Rote, Indiana, 3634",
    "city": "Walland",
    "state": "Federated States Of Micronesia"
  },
  {
    "postalCode": 6483150924,
    "address": "325 Arkansas Drive, Faywood, Kentucky, 8404",
    "city": "Hendersonville",
    "state": "Florida"
  },
  {
    "postalCode": 5008156988,
    "address": "338 Quentin Street, Hoehne, Missouri, 5778",
    "city": "Klondike",
    "state": "Hawaii"
  },
  {
    "postalCode": 4367856501,
    "address": "860 Montgomery Street, Hessville, District Of Columbia, 3647",
    "city": "Winesburg",
    "state": "Georgia"
  },
  {
    "postalCode": 3957002239,
    "address": "940 Hastings Street, Caberfae, Palau, 6269",
    "city": "Ticonderoga",
    "state": "West Virginia"
  },
  {
    "postalCode": 6553160267,
    "address": "845 Wolcott Street, Shaft, Pennsylvania, 4486",
    "city": "Monument",
    "state": "New Mexico"
  },
  {
    "postalCode": 3346585056,
    "address": "331 Surf Avenue, Cashtown, Alaska, 3850",
    "city": "Washington",
    "state": "Tennessee"
  },
  {
    "postalCode": 8756611070,
    "address": "445 Verona Street, Snowville, Iowa, 7166",
    "city": "Allamuchy",
    "state": "South Carolina"
  },
  {
    "postalCode": 6153945151,
    "address": "624 Fayette Street, Longoria, Virgin Islands, 3110",
    "city": "Celeryville",
    "state": "Delaware"
  },
  {
    "postalCode": 1811132218,
    "address": "878 Stillwell Avenue, Alafaya, Guam, 8601",
    "city": "Grimsley",
    "state": "Illinois"
  },
  {
    "postalCode": 1744379552,
    "address": "324 Kaufman Place, Alleghenyville, Maine, 6127",
    "city": "Gulf",
    "state": "American Samoa"
  },
  {
    "postalCode": 6016667855,
    "address": "452 Liberty Avenue, Wanamie, South Dakota, 7708",
    "city": "Tyro",
    "state": "Wisconsin"
  },
  {
    "postalCode": 8036307657,
    "address": "841 Morgan Avenue, Ruffin, North Carolina, 6359",
    "city": "Fairlee",
    "state": "Wyoming"
  },
  {
    "postalCode": 4207755368,
    "address": "459 Vandervoort Avenue, Bradenville, Michigan, 2485",
    "city": "Delshire",
    "state": "New Hampshire"
  },
  {
    "postalCode": 6847951672,
    "address": "585 Bayview Avenue, Troy, Utah, 7816",
    "city": "Herald",
    "state": "Vermont"
  },
  {
    "postalCode": 7570031449,
    "address": "962 Lester Court, Morriston, Nebraska, 6619",
    "city": "Bloomington",
    "state": "Virginia"
  },
  {
    "postalCode": 9533366823,
    "address": "558 Jefferson Street, Siglerville, Montana, 2970",
    "city": "Martinsville",
    "state": "Texas"
  },
  {
    "postalCode": 4647253543,
    "address": "162 Seaview Avenue, Crisman, Oklahoma, 8120",
    "city": "Toftrees",
    "state": "Puerto Rico"
  },
  {
    "postalCode": 1237222405,
    "address": "680 Holmes Lane, Brandywine, Louisiana, 9261",
    "city": "Smock",
    "state": "Mississippi"
  },
  {
    "postalCode": 2562588983,
    "address": "884 Sedgwick Place, Williston, Nevada, 1721",
    "city": "Coyote",
    "state": "Arizona"
  },
  {
    "postalCode": 3703298289,
    "address": "815 Dover Street, Dale, Rhode Island, 744",
    "city": "Bethpage",
    "state": "North Dakota"
  },
  {
    "postalCode": 1657630952,
    "address": "369 Beayer Place, Kimmell, Ohio, 6527",
    "city": "Nettie",
    "state": "Washington"
  },
  {
    "postalCode": 2827080469,
    "address": "530 Seigel Street, Glendale, Minnesota, 722",
    "city": "Brownsville",
    "state": "Alabama"
  },
  {
    "postalCode": 4670697368,
    "address": "288 Turner Place, Holtville, New York, 4834",
    "city": "Dennard",
    "state": "Maryland"
  },
  {
    "postalCode": 6972657207,
    "address": "545 Lewis Avenue, Datil, Idaho, 5403",
    "city": "Byrnedale",
    "state": "Massachusetts"
  },
  {
    "postalCode": 9257849708,
    "address": "184 Adelphi Street, Falmouth, Northern Mariana Islands, 2027",
    "city": "Statenville",
    "state": "Colorado"
  },
  {
    "postalCode": 6126108924,
    "address": "145 Lee Avenue, Katonah, Marshall Islands, 1691",
    "city": "Rivera",
    "state": "Connecticut"
  },
  {
    "postalCode": 6933320903,
    "address": "316 Hicks Street, Heil, California, 3231",
    "city": "Windsor",
    "state": "Oregon"
  },
  {
    "postalCode": 8720941239,
    "address": "224 Quay Street, Wanship, Arkansas, 9371",
    "city": "Navarre",
    "state": "New Jersey"
  },
  {
    "postalCode": 2236249631,
    "address": "529 Thomas Street, Adamstown, Indiana, 3223",
    "city": "Concho",
    "state": "Federated States Of Micronesia"
  },
  {
    "postalCode": 2225477474,
    "address": "381 Montague Terrace, Weedville, Kentucky, 839",
    "city": "Belva",
    "state": "Florida"
  },
  {
    "postalCode": 5862477404,
    "address": "860 Middagh Street, Flintville, Missouri, 119",
    "city": "Belfair",
    "state": "Hawaii"
  },
  {
    "postalCode": 6594826666,
    "address": "411 River Street, Norfolk, District Of Columbia, 2752",
    "city": "Bellamy",
    "state": "Georgia"
  },
  {
    "postalCode": 9971417204,
    "address": "222 Sunnyside Court, Stewartville, Palau, 2480",
    "city": "Bentley",
    "state": "West Virginia"
  },
  {
    "postalCode": 8140311594,
    "address": "486 Colonial Road, Crown, Pennsylvania, 4655",
    "city": "Waiohinu",
    "state": "New Mexico"
  },
  {
    "postalCode": 9229273208,
    "address": "917 Duffield Street, Lacomb, Alaska, 7699",
    "city": "Gorst",
    "state": "Tennessee"
  },
  {
    "postalCode": 2983093368,
    "address": "977 Homecrest Avenue, Mapletown, Iowa, 4767",
    "city": "Vandiver",
    "state": "South Carolina"
  },
  {
    "postalCode": 6147260732,
    "address": "832 Bond Street, Clarktown, Virgin Islands, 6341",
    "city": "Riceville",
    "state": "Delaware"
  },
  {
    "postalCode": 9111465445,
    "address": "177 Maple Avenue, Lindcove, Guam, 6401",
    "city": "Lopezo",
    "state": "Illinois"
  },
  {
    "postalCode": 5499639285,
    "address": "224 Herzl Street, Romeville, Maine, 2961",
    "city": "Brethren",
    "state": "American Samoa"
  },
  {
    "postalCode": 8064502754,
    "address": "906 Harwood Place, Dixie, South Dakota, 6103",
    "city": "Lafferty",
    "state": "Wisconsin"
  },
  {
    "postalCode": 3645099230,
    "address": "917 Perry Place, Yorklyn, North Carolina, 1013",
    "city": "Cobbtown",
    "state": "Wyoming"
  },
  {
    "postalCode": 6417449742,
    "address": "206 Kingsway Place, Yukon, Michigan, 7252",
    "city": "Matthews",
    "state": "New Hampshire"
  },
  {
    "postalCode": 7580659774,
    "address": "687 Willoughby Avenue, Nogal, Utah, 6442",
    "city": "Clinton",
    "state": "Vermont"
  },
  {
    "postalCode": 6529502442,
    "address": "140 Royce Street, Eastvale, Nebraska, 1311",
    "city": "Glidden",
    "state": "Virginia"
  },
  {
    "postalCode": 2792662664,
    "address": "730 Sullivan Place, Trinway, Montana, 3667",
    "city": "Marion",
    "state": "Texas"
  },
  {
    "postalCode": 7503644456,
    "address": "635 Prince Street, Riverton, Oklahoma, 2684",
    "city": "Southview",
    "state": "Puerto Rico"
  },
  {
    "postalCode": 7114524272,
    "address": "798 Grand Avenue, Springville, Louisiana, 5436",
    "city": "Venice",
    "state": "Mississippi"
  },
  {
    "postalCode": 7375857015,
    "address": "542 Richmond Street, Taycheedah, Nevada, 3969",
    "city": "Leyner",
    "state": "Arizona"
  },
  {
    "postalCode": 6260614981,
    "address": "507 Ridge Court, Orin, Rhode Island, 8081",
    "city": "Boyd",
    "state": "North Dakota"
  },
  {
    "postalCode": 5852476966,
    "address": "312 Bleecker Street, Keller, Ohio, 8638",
    "city": "Inkerman",
    "state": "Washington"
  },
  {
    "postalCode": 8790172195,
    "address": "727 Garfield Place, Saranap, Minnesota, 4044",
    "city": "Martell",
    "state": "Alabama"
  },
  {
    "postalCode": 1181068248,
    "address": "209 Williams Avenue, Waterloo, New York, 7575",
    "city": "Magnolia",
    "state": "Maryland"
  },
  {
    "postalCode": 5957369629,
    "address": "381 Blake Avenue, Jackpot, Idaho, 1624",
    "city": "Cherokee",
    "state": "Massachusetts"
  },
  {
    "postalCode": 6616381498,
    "address": "939 Mill Road, Sanborn, Northern Mariana Islands, 7811",
    "city": "Indio",
    "state": "Colorado"
  },
  {
    "postalCode": 3436323185,
    "address": "667 Creamer Street, Jugtown, Marshall Islands, 1557",
    "city": "Ogema",
    "state": "Connecticut"
  },
  {
    "postalCode": 3066919895,
    "address": "249 Sheffield Avenue, Elfrida, California, 2820",
    "city": "Wakarusa",
    "state": "Oregon"
  },
  {
    "postalCode": 5100094601,
    "address": "489 Monroe Street, Westphalia, Arkansas, 6557",
    "city": "Ruckersville",
    "state": "New Jersey"
  },
  {
    "postalCode": 4292542751,
    "address": "966 Meadow Street, Haring, Indiana, 4115",
    "city": "Zarephath",
    "state": "Federated States Of Micronesia"
  },
  {
    "postalCode": 1212732077,
    "address": "181 Commercial Street, Machias, Kentucky, 9637",
    "city": "Como",
    "state": "Florida"
  },
  {
    "postalCode": 1115352716,
    "address": "603 Bath Avenue, Staples, Missouri, 2071",
    "city": "Gilmore",
    "state": "Hawaii"
  },
  {
    "postalCode": 9921443221,
    "address": "506 Alice Court, Deseret, District Of Columbia, 7281",
    "city": "Mooresburg",
    "state": "Georgia"
  },
  {
    "postalCode": 4447538232,
    "address": "808 Saratoga Avenue, Snelling, Palau, 6223",
    "city": "Bainbridge",
    "state": "West Virginia"
  },
  {
    "postalCode": 7404579463,
    "address": "593 Losee Terrace, Kenmar, Pennsylvania, 840",
    "city": "Makena",
    "state": "New Mexico"
  },
  {
    "postalCode": 5134310112,
    "address": "366 Mermaid Avenue, Corriganville, Alaska, 4723",
    "city": "Bascom",
    "state": "Tennessee"
  },
  {
    "postalCode": 8046010317,
    "address": "939 Gold Street, Verdi, Iowa, 1123",
    "city": "Deputy",
    "state": "South Carolina"
  },
  {
    "postalCode": 6558848919,
    "address": "314 Plymouth Street, Bancroft, Virgin Islands, 604",
    "city": "Glenville",
    "state": "Delaware"
  },
  {
    "postalCode": 2230605085,
    "address": "337 Glendale Court, Abiquiu, Guam, 5424",
    "city": "Brookfield",
    "state": "Illinois"
  },
  {
    "postalCode": 4758347021,
    "address": "409 Flatlands Avenue, Titanic, Maine, 1074",
    "city": "Oley",
    "state": "American Samoa"
  },
  {
    "postalCode": 4312367029,
    "address": "704 Highland Avenue, Grahamtown, South Dakota, 1937",
    "city": "Tecolotito",
    "state": "Wisconsin"
  },
  {
    "postalCode": 2556704074,
    "address": "644 Kings Hwy, Saddlebrooke, North Carolina, 4490",
    "city": "Caroleen",
    "state": "Wyoming"
  },
  {
    "postalCode": 7953415109,
    "address": "249 Tilden Avenue, Roy, Michigan, 9665",
    "city": "Wright",
    "state": "New Hampshire"
  },
  {
    "postalCode": 5111570022,
    "address": "208 Cox Place, Elizaville, Utah, 3532",
    "city": "Cartwright",
    "state": "Vermont"
  },
  {
    "postalCode": 5767323971,
    "address": "189 Grace Court, Rockhill, Nebraska, 947",
    "city": "Maybell",
    "state": "Virginia"
  },
  {
    "postalCode": 7822108588,
    "address": "896 Fane Court, Osage, Montana, 6042",
    "city": "Hondah",
    "state": "Texas"
  },
  {
    "postalCode": 9994406720,
    "address": "882 Doscher Street, Clay, Oklahoma, 9368",
    "city": "Walker",
    "state": "Puerto Rico"
  },
  {
    "postalCode": 7162372402,
    "address": "619 Sunnyside Avenue, Kaka, Louisiana, 7089",
    "city": "Waverly",
    "state": "Mississippi"
  },
  {
    "postalCode": 7614535872,
    "address": "752 Amber Street, Selma, Nevada, 1446",
    "city": "Rew",
    "state": "Arizona"
  },
  {
    "postalCode": 8618601972,
    "address": "411 School Lane, Hegins, Rhode Island, 8508",
    "city": "Gerton",
    "state": "North Dakota"
  },
  {
    "postalCode": 3463791485,
    "address": "518 Boynton Place, Juntura, Ohio, 8362",
    "city": "Sattley",
    "state": "Washington"
  },
  {
    "postalCode": 7392793323,
    "address": "158 Commerce Street, Kraemer, Minnesota, 9893",
    "city": "Reinerton",
    "state": "Alabama"
  },
  {
    "postalCode": 3871284735,
    "address": "576 Canal Avenue, Valle, New York, 6719",
    "city": "Leeper",
    "state": "Maryland"
  },
  {
    "postalCode": 4603095761,
    "address": "260 Celeste Court, Martinez, Idaho, 129",
    "city": "Salix",
    "state": "Massachusetts"
  },
  {
    "postalCode": 5199858714,
    "address": "853 Cadman Plaza, Hollymead, Northern Mariana Islands, 1084",
    "city": "Lydia",
    "state": "Colorado"
  },
  {
    "postalCode": 3612585626,
    "address": "844 Kane Place, Darlington, Marshall Islands, 1033",
    "city": "Omar",
    "state": "Connecticut"
  },
  {
    "postalCode": 2201029279,
    "address": "298 Bush Street, Homeland, California, 1151",
    "city": "Ellerslie",
    "state": "Oregon"
  },
  {
    "postalCode": 3190064001,
    "address": "451 Hunterfly Place, Konterra, Arkansas, 1129",
    "city": "Cochranville",
    "state": "New Jersey"
  },
  {
    "postalCode": 3980269083,
    "address": "320 Beacon Court, Waukeenah, Indiana, 7724",
    "city": "Garnet",
    "state": "Federated States Of Micronesia"
  },
  {
    "postalCode": 7541310268,
    "address": "134 Clifford Place, Austinburg, Kentucky, 1373",
    "city": "Tilden",
    "state": "Florida"
  },
  {
    "postalCode": 6308494924,
    "address": "758 Gotham Avenue, Caledonia, Missouri, 781",
    "city": "Kansas",
    "state": "Hawaii"
  },
  {
    "postalCode": 5744529496,
    "address": "367 Guider Avenue, Townsend, District Of Columbia, 8302",
    "city": "Dola",
    "state": "Georgia"
  },
  {
    "postalCode": 7451163591,
    "address": "867 Baughman Place, Caroline, Palau, 1772",
    "city": "Eureka",
    "state": "West Virginia"
  },
  {
    "postalCode": 5723455704,
    "address": "246 Midwood Street, Defiance, Pennsylvania, 2740",
    "city": "Drytown",
    "state": "New Mexico"
  },
  {
    "postalCode": 5236693601,
    "address": "895 Division Avenue, Skyland, Alaska, 9773",
    "city": "Ironton",
    "state": "Tennessee"
  },
  {
    "postalCode": 2952200758,
    "address": "410 Quincy Street, Turah, Iowa, 1084",
    "city": "Ivanhoe",
    "state": "South Carolina"
  },
  {
    "postalCode": 2029330313,
    "address": "129 Pulaski Street, Finzel, Virgin Islands, 1290",
    "city": "Bagtown",
    "state": "Delaware"
  },
  {
    "postalCode": 3063389652,
    "address": "511 Battery Avenue, Lowell, Guam, 2677",
    "city": "Winfred",
    "state": "Illinois"
  },
  {
    "postalCode": 2473637335,
    "address": "930 Gardner Avenue, Bowie, Maine, 7251",
    "city": "Coleville",
    "state": "American Samoa"
  },
  {
    "postalCode": 2254012906,
    "address": "792 Moore Street, Somerset, South Dakota, 5456",
    "city": "Day",
    "state": "Wisconsin"
  },
  {
    "postalCode": 7760766288,
    "address": "798 Hendrix Street, Loyalhanna, North Carolina, 5973",
    "city": "Whipholt",
    "state": "Wyoming"
  },
  {
    "postalCode": 8930617108,
    "address": "959 Brooklyn Avenue, Macdona, Michigan, 1731",
    "city": "Strykersville",
    "state": "New Hampshire"
  },
  {
    "postalCode": 1472165670,
    "address": "830 Chester Court, Motley, Utah, 2259",
    "city": "Gibsonia",
    "state": "Vermont"
  },
  {
    "postalCode": 2617142809,
    "address": "100 Madison Street, Websterville, Nebraska, 9745",
    "city": "Movico",
    "state": "Virginia"
  },
  {
    "postalCode": 3700830355,
    "address": "431 Clarkson Avenue, Independence, Montana, 4465",
    "city": "Basye",
    "state": "Texas"
  },
  {
    "postalCode": 5111608892,
    "address": "493 Nova Court, Harrison, Oklahoma, 3920",
    "city": "Kennedyville",
    "state": "Puerto Rico"
  },
  {
    "postalCode": 1691767496,
    "address": "233 Empire Boulevard, Dodge, Louisiana, 1648",
    "city": "Groton",
    "state": "Mississippi"
  },
  {
    "postalCode": 1561312157,
    "address": "739 Grand Street, Nanafalia, Nevada, 4381",
    "city": "Bonanza",
    "state": "Arizona"
  },
  {
    "postalCode": 1938689337,
    "address": "331 Ferris Street, Echo, Rhode Island, 5385",
    "city": "Hayes",
    "state": "North Dakota"
  },
  {
    "postalCode": 7113781396,
    "address": "246 Dunne Court, Savannah, Ohio, 6194",
    "city": "Hollins",
    "state": "Washington"
  },
  {
    "postalCode": 8963537572,
    "address": "727 Lott Street, Gasquet, Minnesota, 4638",
    "city": "Fairfield",
    "state": "Alabama"
  },
  {
    "postalCode": 8706049512,
    "address": "424 Laurel Avenue, Elrama, New York, 5301",
    "city": "Fidelis",
    "state": "Maryland"
  },
  {
    "postalCode": 1240125074,
    "address": "332 Cumberland Street, Sutton, Idaho, 9600",
    "city": "Alamo",
    "state": "Massachusetts"
  },
  {
    "postalCode": 4551781368,
    "address": "294 Holt Court, Bodega, Northern Mariana Islands, 7236",
    "city": "Germanton",
    "state": "Colorado"
  },
  {
    "postalCode": 1467584528,
    "address": "771 Arlington Place, Westwood, Marshall Islands, 5456",
    "city": "Churchill",
    "state": "Connecticut"
  },
  {
    "postalCode": 8215116895,
    "address": "734 Barlow Drive, Escondida, California, 4667",
    "city": "Babb",
    "state": "Oregon"
  },
  {
    "postalCode": 8286197500,
    "address": "734 Bogart Street, Ypsilanti, Arkansas, 3329",
    "city": "Wells",
    "state": "New Jersey"
  },
  {
    "postalCode": 9012289066,
    "address": "643 Little Street, Wilsonia, Indiana, 1553",
    "city": "Vincent",
    "state": "Federated States Of Micronesia"
  },
  {
    "postalCode": 1732940337,
    "address": "835 Union Street, Gratton, Kentucky, 4649",
    "city": "Masthope",
    "state": "Florida"
  },
  {
    "postalCode": 4811719051,
    "address": "230 Brown Street, Kapowsin, Missouri, 7489",
    "city": "Hiko",
    "state": "Hawaii"
  },
  {
    "postalCode": 4634067744,
    "address": "360 Division Place, Hobucken, District Of Columbia, 827",
    "city": "Harrodsburg",
    "state": "Georgia"
  },
  {
    "postalCode": 1182732421,
    "address": "981 Butler Street, Urie, Palau, 4798",
    "city": "Weeksville",
    "state": "West Virginia"
  },
  {
    "postalCode": 7681288448,
    "address": "455 Minna Street, Knowlton, Pennsylvania, 5096",
    "city": "Avoca",
    "state": "New Mexico"
  },
  {
    "postalCode": 2171486726,
    "address": "578 Tehama Street, Callaghan, Alaska, 4797",
    "city": "Rosine",
    "state": "Tennessee"
  },
  {
    "postalCode": 7921285850,
    "address": "510 Central Avenue, Moquino, Iowa, 9938",
    "city": "Marienthal",
    "state": "South Carolina"
  },
  {
    "postalCode": 7945959626,
    "address": "587 Love Lane, Cliffside, Virgin Islands, 4332",
    "city": "Maury",
    "state": "Delaware"
  },
  {
    "postalCode": 9008661977,
    "address": "772 Gunther Place, Nelson, Guam, 6039",
    "city": "Frizzleburg",
    "state": "Illinois"
  },
  {
    "postalCode": 1457633107,
    "address": "800 Milton Street, Chamberino, Maine, 219",
    "city": "Steinhatchee",
    "state": "American Samoa"
  },
  {
    "postalCode": 4215173312,
    "address": "422 Hanson Place, Durham, South Dakota, 5584",
    "city": "Lawrence",
    "state": "Wisconsin"
  },
  {
    "postalCode": 6336383024,
    "address": "390 National Drive, Centerville, North Carolina, 527",
    "city": "Breinigsville",
    "state": "Wyoming"
  },
  {
    "postalCode": 1560977653,
    "address": "298 Rockaway Avenue, Ripley, Michigan, 7281",
    "city": "Hickory",
    "state": "New Hampshire"
  },
  {
    "postalCode": 4859101946,
    "address": "370 Ryerson Street, Blandburg, Utah, 7611",
    "city": "Brambleton",
    "state": "Vermont"
  },
  {
    "postalCode": 6773548309,
    "address": "964 Jefferson Avenue, Ernstville, Nebraska, 2279",
    "city": "Florence",
    "state": "Virginia"
  },
  {
    "postalCode": 1595489450,
    "address": "155 Morton Street, Cuylerville, Montana, 1650",
    "city": "Williamson",
    "state": "Texas"
  },
  {
    "postalCode": 8125434375,
    "address": "229 George Street, Cecilia, Oklahoma, 970",
    "city": "Watchtower",
    "state": "Puerto Rico"
  },
  {
    "postalCode": 8741389287,
    "address": "232 Alton Place, Roeville, Louisiana, 4528",
    "city": "Veguita",
    "state": "Mississippi"
  },
  {
    "postalCode": 4902325976,
    "address": "281 Scholes Street, Kanauga, Nevada, 7146",
    "city": "Brogan",
    "state": "Arizona"
  },
  {
    "postalCode": 1357919385,
    "address": "700 Clinton Avenue, Nutrioso, Rhode Island, 5428",
    "city": "Croom",
    "state": "North Dakota"
  },
  {
    "postalCode": 3245629330,
    "address": "924 Diamond Street, Bend, Ohio, 3060",
    "city": "Rowe",
    "state": "Washington"
  },
  {
    "postalCode": 2827646035,
    "address": "870 Calyer Street, Edneyville, Minnesota, 4279",
    "city": "Aguila",
    "state": "Alabama"
  },
  {
    "postalCode": 5095133009,
    "address": "981 Everit Street, Cucumber, New York, 8271",
    "city": "Columbus",
    "state": "Maryland"
  },
  {
    "postalCode": 5470954396,
    "address": "490 Borinquen Pl, Shepardsville, Idaho, 8104",
    "city": "Genoa",
    "state": "Massachusetts"
  },
  {
    "postalCode": 8773947281,
    "address": "167 Nautilus Avenue, Sisquoc, Northern Mariana Islands, 8845",
    "city": "Maxville",
    "state": "Colorado"
  },
  {
    "postalCode": 8797735821,
    "address": "414 Stryker Court, Kersey, Marshall Islands, 9909",
    "city": "Chase",
    "state": "Connecticut"
  },
  {
    "postalCode": 4149068144,
    "address": "163 Chester Avenue, Topaz, California, 3534",
    "city": "Floriston",
    "state": "Oregon"
  },
  {
    "postalCode": 6385050742,
    "address": "316 Bragg Street, Lowgap, Arkansas, 174",
    "city": "Ona",
    "state": "New Jersey"
  },
  {
    "postalCode": 5609537483,
    "address": "123 Dahlgreen Place, Jennings, Indiana, 9811",
    "city": "Thermal",
    "state": "Federated States Of Micronesia"
  },
  {
    "postalCode": 1381609104,
    "address": "990 Roosevelt Court, Hebron, Kentucky, 2319",
    "city": "Gwynn",
    "state": "Florida"
  },
  {
    "postalCode": 8411260272,
    "address": "525 Gunnison Court, Neibert, Missouri, 2969",
    "city": "Irwin",
    "state": "Hawaii"
  },
  {
    "postalCode": 7398586828,
    "address": "237 Amboy Street, Worton, District Of Columbia, 1191",
    "city": "Bergoo",
    "state": "Georgia"
  },
  {
    "postalCode": 3468600879,
    "address": "540 Hawthorne Street, Garberville, Palau, 8694",
    "city": "Yonah",
    "state": "West Virginia"
  },
  {
    "postalCode": 4349643911,
    "address": "204 Taylor Street, Allensworth, Pennsylvania, 8470",
    "city": "Madaket",
    "state": "New Mexico"
  },
  {
    "postalCode": 8829589535,
    "address": "123 Glen Street, Gracey, Alaska, 2510",
    "city": "Lavalette",
    "state": "Tennessee"
  },
  {
    "postalCode": 1128282781,
    "address": "572 Strickland Avenue, Deercroft, Iowa, 6901",
    "city": "Munjor",
    "state": "South Carolina"
  },
  {
    "postalCode": 8132865576,
    "address": "621 Williamsburg Street, Fairacres, Virgin Islands, 5022",
    "city": "Whitewater",
    "state": "Delaware"
  },
  {
    "postalCode": 3014263435,
    "address": "421 Anthony Street, Kempton, Guam, 6197",
    "city": "Chesapeake",
    "state": "Illinois"
  },
  {
    "postalCode": 8487795799,
    "address": "753 Vermont Street, Efland, Maine, 4060",
    "city": "Fairhaven",
    "state": "American Samoa"
  },
  {
    "postalCode": 6020003767,
    "address": "516 Independence Avenue, Talpa, South Dakota, 656",
    "city": "Nadine",
    "state": "Wisconsin"
  },
  {
    "postalCode": 5992988962,
    "address": "443 Huron Street, Tetherow, North Carolina, 8692",
    "city": "Conestoga",
    "state": "Wyoming"
  },
  {
    "postalCode": 4140403439,
    "address": "208 Sumpter Street, Richville, Michigan, 9510",
    "city": "Veyo",
    "state": "New Hampshire"
  },
  {
    "postalCode": 7048914461,
    "address": "718 Seacoast Terrace, Shindler, Utah, 780",
    "city": "Coinjock",
    "state": "Vermont"
  },
  {
    "postalCode": 1592076303,
    "address": "154 Fountain Avenue, Darbydale, Nebraska, 8108",
    "city": "Ventress",
    "state": "Virginia"
  },
  {
    "postalCode": 9397267427,
    "address": "586 Elizabeth Place, Sheatown, Montana, 9951",
    "city": "Malott",
    "state": "Texas"
  },
  {
    "postalCode": 9444597582,
    "address": "692 Hart Street, Twilight, Oklahoma, 8838",
    "city": "Kohatk",
    "state": "Puerto Rico"
  },
  {
    "postalCode": 3995354020,
    "address": "169 John Street, Biehle, Louisiana, 9086",
    "city": "Grapeview",
    "state": "Mississippi"
  },
  {
    "postalCode": 7684619984,
    "address": "447 Hutchinson Court, Limestone, Nevada, 3117",
    "city": "Connerton",
    "state": "Arizona"
  },
  {
    "postalCode": 3243300193,
    "address": "792 Roosevelt Place, Kerby, Rhode Island, 1020",
    "city": "Crumpler",
    "state": "North Dakota"
  },
  {
    "postalCode": 9722089919,
    "address": "797 Mayfair Drive, Singer, Ohio, 2134",
    "city": "Wauhillau",
    "state": "Washington"
  },
  {
    "postalCode": 6642611216,
    "address": "102 Baltic Street, Stouchsburg, Minnesota, 8655",
    "city": "Vivian",
    "state": "Alabama"
  },
  {
    "postalCode": 4503534883,
    "address": "645 Gain Court, Fairview, New York, 3296",
    "city": "Kirk",
    "state": "Maryland"
  },
  {
    "postalCode": 6324419841,
    "address": "558 Danforth Street, Garfield, Idaho, 7101",
    "city": "Riner",
    "state": "Massachusetts"
  },
  {
    "postalCode": 3835072489,
    "address": "427 Tampa Court, Greer, Northern Mariana Islands, 4672",
    "city": "Loveland",
    "state": "Colorado"
  },
  {
    "postalCode": 3958143106,
    "address": "720 Menahan Street, Manitou, Marshall Islands, 9307",
    "city": "Teasdale",
    "state": "Connecticut"
  },
  {
    "postalCode": 9802950375,
    "address": "766 Barbey Street, Crenshaw, California, 3362",
    "city": "Barrelville",
    "state": "Oregon"
  },
  {
    "postalCode": 1647427770,
    "address": "353 Schroeders Avenue, Cotopaxi, Arkansas, 4380",
    "city": "Kylertown",
    "state": "New Jersey"
  },
  {
    "postalCode": 2018279220,
    "address": "333 Colby Court, Forestburg, Indiana, 8069",
    "city": "Slovan",
    "state": "Federated States Of Micronesia"
  },
  {
    "postalCode": 3769930472,
    "address": "669 Matthews Court, Oretta, Kentucky, 9962",
    "city": "Cataract",
    "state": "Florida"
  },
  {
    "postalCode": 3841279415,
    "address": "777 Orient Avenue, Dunlo, Missouri, 2971",
    "city": "Grazierville",
    "state": "Hawaii"
  },
  {
    "postalCode": 2279804726,
    "address": "655 Meserole Street, Sterling, District Of Columbia, 214",
    "city": "Barronett",
    "state": "Georgia"
  },
  {
    "postalCode": 3787519476,
    "address": "169 Chester Street, Crawfordsville, Palau, 6763",
    "city": "Wadsworth",
    "state": "West Virginia"
  },
  {
    "postalCode": 5556562474,
    "address": "447 Powell Street, Kilbourne, Pennsylvania, 3487",
    "city": "Bladensburg",
    "state": "New Mexico"
  },
  {
    "postalCode": 9973844730,
    "address": "628 Hunts Lane, Robbins, Alaska, 145",
    "city": "Olney",
    "state": "Tennessee"
  },
  {
    "postalCode": 2030499300,
    "address": "470 Roder Avenue, Ladera, Iowa, 1587",
    "city": "Brazos",
    "state": "South Carolina"
  },
  {
    "postalCode": 8863634071,
    "address": "167 Brighton Court, Sims, Virgin Islands, 3826",
    "city": "Bedias",
    "state": "Delaware"
  },
  {
    "postalCode": 7962717174,
    "address": "478 Polhemus Place, Dalton, Guam, 8405",
    "city": "Valmy",
    "state": "Illinois"
  },
  {
    "postalCode": 3624938283,
    "address": "353 Chestnut Street, Convent, Maine, 4231",
    "city": "Ola",
    "state": "American Samoa"
  },
  {
    "postalCode": 3173001713,
    "address": "576 Fulton Street, Vicksburg, South Dakota, 345",
    "city": "Clara",
    "state": "Wisconsin"
  },
  {
    "postalCode": 5423326480,
    "address": "241 Preston Court, Dubois, North Carolina, 5764",
    "city": "Belleview",
    "state": "Wyoming"
  },
  {
    "postalCode": 5892148762,
    "address": "227 Fleet Walk, Sandston, Michigan, 9088",
    "city": "Conway",
    "state": "New Hampshire"
  },
  {
    "postalCode": 8991772527,
    "address": "141 Oriental Court, Orovada, Utah, 9657",
    "city": "Ryderwood",
    "state": "Vermont"
  },
  {
    "postalCode": 1321698350,
    "address": "747 Neptune Avenue, Carlos, Nebraska, 1268",
    "city": "Mayfair",
    "state": "Virginia"
  },
  {
    "postalCode": 5874133835,
    "address": "302 Denton Place, Aberdeen, Montana, 3293",
    "city": "Edgar",
    "state": "Texas"
  },
  {
    "postalCode": 9785406932,
    "address": "528 Osborn Street, Odessa, Oklahoma, 6623",
    "city": "Holcombe",
    "state": "Puerto Rico"
  },
  {
    "postalCode": 2380390126,
    "address": "154 Elliott Walk, Enlow, Louisiana, 4376",
    "city": "Sussex",
    "state": "Mississippi"
  },
  {
    "postalCode": 9130480586,
    "address": "207 Willoughby Street, Utting, Nevada, 7175",
    "city": "Yogaville",
    "state": "Arizona"
  },
  {
    "postalCode": 3846542463,
    "address": "967 Grafton Street, Sultana, Rhode Island, 2694",
    "city": "Lewis",
    "state": "North Dakota"
  },
  {
    "postalCode": 1927630777,
    "address": "377 Debevoise Street, Belmont, Ohio, 1989",
    "city": "Rodman",
    "state": "Washington"
  },
  {
    "postalCode": 3072607543,
    "address": "808 Cherry Street, Wakulla, Minnesota, 5078",
    "city": "Gerber",
    "state": "Alabama"
  },
  {
    "postalCode": 3250942713,
    "address": "485 Banner Avenue, Hall, New York, 140",
    "city": "Spokane",
    "state": "Maryland"
  },
  {
    "postalCode": 3807244967,
    "address": "375 Coleridge Street, Noxen, Idaho, 2626",
    "city": "Floris",
    "state": "Massachusetts"
  },
  {
    "postalCode": 7341097445,
    "address": "937 Doughty Street, Hilltop, Northern Mariana Islands, 9348",
    "city": "Witmer",
    "state": "Colorado"
  },
  {
    "postalCode": 4488202599,
    "address": "411 Doone Court, Fredericktown, Marshall Islands, 1526",
    "city": "Alderpoint",
    "state": "Connecticut"
  },
  {
    "postalCode": 4818362223,
    "address": "160 Forbell Street, Chumuckla, California, 8253",
    "city": "Bordelonville",
    "state": "Oregon"
  },
  {
    "postalCode": 3767508993,
    "address": "110 Hubbard Place, Retsof, Arkansas, 7189",
    "city": "Grandview",
    "state": "New Jersey"
  },
  {
    "postalCode": 9927011365,
    "address": "673 Walker Court, Kipp, Indiana, 3402",
    "city": "Camino",
    "state": "Federated States Of Micronesia"
  },
  {
    "postalCode": 2379669426,
    "address": "599 Russell Street, Sena, Kentucky, 3711",
    "city": "Tolu",
    "state": "Florida"
  },
  {
    "postalCode": 9635925453,
    "address": "166 Fairview Place, Sardis, Missouri, 8104",
    "city": "Oneida",
    "state": "Hawaii"
  },
  {
    "postalCode": 5877292774,
    "address": "511 Gerritsen Avenue, Jessie, District Of Columbia, 4856",
    "city": "Manchester",
    "state": "Georgia"
  },
  {
    "postalCode": 2796010174,
    "address": "147 Hampton Avenue, Harold, Palau, 3411",
    "city": "Reno",
    "state": "West Virginia"
  },
  {
    "postalCode": 9068226010,
    "address": "956 Hopkins Street, Linwood, Pennsylvania, 3778",
    "city": "Sparkill",
    "state": "New Mexico"
  },
  {
    "postalCode": 1541791098,
    "address": "469 Alabama Avenue, Johnsonburg, Alaska, 4438",
    "city": "Lorraine",
    "state": "Tennessee"
  },
  {
    "postalCode": 1457502609,
    "address": "325 Corbin Place, Allison, Iowa, 3528",
    "city": "Hanover",
    "state": "South Carolina"
  },
  {
    "postalCode": 8005271347,
    "address": "535 Melrose Street, Buxton, Virgin Islands, 4183",
    "city": "Swartzville",
    "state": "Delaware"
  },
  {
    "postalCode": 3794607980,
    "address": "659 Lewis Place, Carbonville, Guam, 1044",
    "city": "Lithium",
    "state": "Illinois"
  },
  {
    "postalCode": 3004845189,
    "address": "967 Sands Street, Dunbar, Maine, 2643",
    "city": "Noblestown",
    "state": "American Samoa"
  },
  {
    "postalCode": 9514612907,
    "address": "458 Ruby Street, Gilgo, South Dakota, 4990",
    "city": "Castleton",
    "state": "Wisconsin"
  },
  {
    "postalCode": 9732793055,
    "address": "661 Ridgewood Place, Idledale, North Carolina, 5746",
    "city": "Draper",
    "state": "Wyoming"
  },
  {
    "postalCode": 6284983535,
    "address": "664 Putnam Avenue, Rivereno, Michigan, 3030",
    "city": "Nile",
    "state": "New Hampshire"
  },
  {
    "postalCode": 4218660668,
    "address": "858 Plaza Street, Dargan, Utah, 3744",
    "city": "Harmon",
    "state": "Vermont"
  },
  {
    "postalCode": 6048770511,
    "address": "218 Kings Place, Roberts, Nebraska, 1785",
    "city": "Shasta",
    "state": "Virginia"
  },
  {
    "postalCode": 7198384226,
    "address": "583 Tapscott Street, Allendale, Montana, 8949",
    "city": "Westmoreland",
    "state": "Texas"
  },
  {
    "postalCode": 4859410419,
    "address": "966 Lexington Avenue, Watrous, Oklahoma, 1468",
    "city": "Herbster",
    "state": "Puerto Rico"
  },
  {
    "postalCode": 3632514334,
    "address": "797 Nostrand Avenue, Esmont, Louisiana, 6136",
    "city": "Dyckesville",
    "state": "Mississippi"
  },
  {
    "postalCode": 7682277788,
    "address": "730 Clark Street, Loretto, Nevada, 1123",
    "city": "Cetronia",
    "state": "Arizona"
  },
  {
    "postalCode": 6457046075,
    "address": "492 Rutland Road, Sidman, Rhode Island, 2938",
    "city": "Kidder",
    "state": "North Dakota"
  },
  {
    "postalCode": 4836287291,
    "address": "587 Montrose Avenue, Brule, Ohio, 4260",
    "city": "Chaparrito",
    "state": "Washington"
  },
  {
    "postalCode": 1146382094,
    "address": "538 Beaver Street, Yardville, Minnesota, 5796",
    "city": "Haena",
    "state": "Alabama"
  },
  {
    "postalCode": 5554672413,
    "address": "650 Overbaugh Place, Blanford, New York, 5919",
    "city": "Needmore",
    "state": "Maryland"
  },
  {
    "postalCode": 9617452613,
    "address": "263 Ash Street, Onton, Idaho, 9750",
    "city": "Grayhawk",
    "state": "Massachusetts"
  },
  {
    "postalCode": 5954181206,
    "address": "744 Louisa Street, Brecon, Northern Mariana Islands, 4882",
    "city": "Tyhee",
    "state": "Colorado"
  },
  {
    "postalCode": 8805543123,
    "address": "449 Bowne Street, Orviston, Marshall Islands, 970",
    "city": "Matheny",
    "state": "Connecticut"
  },
  {
    "postalCode": 8701476716,
    "address": "682 Whitwell Place, Tampico, California, 4768",
    "city": "Newry",
    "state": "Oregon"
  },
  {
    "postalCode": 9876020357,
    "address": "798 Rockwell Place, Wikieup, Arkansas, 2209",
    "city": "Hamilton",
    "state": "New Jersey"
  },
  {
    "postalCode": 2394114421,
    "address": "635 Channel Avenue, Wolcott, Indiana, 8002",
    "city": "Stockdale",
    "state": "Federated States Of Micronesia"
  },
  {
    "postalCode": 3455331687,
    "address": "718 Clermont Avenue, Volta, Kentucky, 8070",
    "city": "Aurora",
    "state": "Florida"
  },
  {
    "postalCode": 2096057874,
    "address": "715 Monroe Place, Kent, Missouri, 8971",
    "city": "Sunwest",
    "state": "Hawaii"
  },
  {
    "postalCode": 8837503413,
    "address": "205 Driggs Avenue, Shawmut, District Of Columbia, 995",
    "city": "Felt",
    "state": "Georgia"
  },
  {
    "postalCode": 4143029709,
    "address": "601 Front Street, Baker, Palau, 8339",
    "city": "Hemlock",
    "state": "West Virginia"
  },
  {
    "postalCode": 5222559164,
    "address": "354 Underhill Avenue, Goochland, Pennsylvania, 5507",
    "city": "Stevens",
    "state": "New Mexico"
  },
  {
    "postalCode": 1741711106,
    "address": "617 Opal Court, Brooktrails, Alaska, 1592",
    "city": "Camas",
    "state": "Tennessee"
  },
  {
    "postalCode": 8690241111,
    "address": "873 Veterans Avenue, Rose, Iowa, 9968",
    "city": "Lutsen",
    "state": "South Carolina"
  },
  {
    "postalCode": 7283234674,
    "address": "488 Provost Street, Dupuyer, Virgin Islands, 6803",
    "city": "Forbestown",
    "state": "Delaware"
  },
  {
    "postalCode": 1593304533,
    "address": "604 Malta Street, Jacumba, Guam, 9828",
    "city": "Cowiche",
    "state": "Illinois"
  },
  {
    "postalCode": 3094929908,
    "address": "604 Rodney Street, Lisco, Maine, 4889",
    "city": "Axis",
    "state": "American Samoa"
  },
  {
    "postalCode": 1527788343,
    "address": "850 Sutter Avenue, Craig, South Dakota, 6154",
    "city": "Foscoe",
    "state": "Wisconsin"
  },
  {
    "postalCode": 2902093970,
    "address": "929 Williams Place, Calvary, North Carolina, 8378",
    "city": "Zeba",
    "state": "Wyoming"
  },
  {
    "postalCode": 6687691597,
    "address": "544 Main Street, Weogufka, Michigan, 7947",
    "city": "Rockbridge",
    "state": "New Hampshire"
  },
  {
    "postalCode": 9806288939,
    "address": "455 Beadel Street, Idamay, Utah, 9875",
    "city": "Layhill",
    "state": "Vermont"
  },
  {
    "postalCode": 6756429918,
    "address": "961 Hull Street, Berwind, Nebraska, 4615",
    "city": "Bowmansville",
    "state": "Virginia"
  },
  {
    "postalCode": 3617143407,
    "address": "195 Fuller Place, Dahlen, Montana, 1084",
    "city": "Cedarville",
    "state": "Texas"
  },
  {
    "postalCode": 4741476289,
    "address": "417 Ocean Avenue, Mulino, Oklahoma, 2611",
    "city": "Boonville",
    "state": "Puerto Rico"
  },
  {
    "postalCode": 5216080796,
    "address": "177 Vanderbilt Street, Fruitdale, Louisiana, 4137",
    "city": "Goodville",
    "state": "Mississippi"
  },
  {
    "postalCode": 4236816980,
    "address": "715 Oxford Walk, Joppa, Nevada, 5419",
    "city": "Southmont",
    "state": "Arizona"
  },
  {
    "postalCode": 3915794650,
    "address": "433 Stockton Street, Wilmington, Rhode Island, 2117",
    "city": "Marysville",
    "state": "North Dakota"
  },
  {
    "postalCode": 3289801800,
    "address": "643 Strong Place, Freetown, Ohio, 168",
    "city": "Drummond",
    "state": "Washington"
  },
  {
    "postalCode": 4733885606,
    "address": "418 Balfour Place, Sedley, Minnesota, 2717",
    "city": "Beason",
    "state": "Alabama"
  },
  {
    "postalCode": 6013717205,
    "address": "310 Benson Avenue, Chesterfield, New York, 1883",
    "city": "Wacissa",
    "state": "Maryland"
  },
  {
    "postalCode": 2199086127,
    "address": "624 Stockholm Street, Shrewsbury, Idaho, 479",
    "city": "Eastmont",
    "state": "Massachusetts"
  },
  {
    "postalCode": 4306653079,
    "address": "826 Regent Place, Woodlake, Northern Mariana Islands, 4081",
    "city": "Salvo",
    "state": "Colorado"
  },
  {
    "postalCode": 9907041477,
    "address": "734 Dunne Place, Rockingham, Marshall Islands, 5672",
    "city": "Abrams",
    "state": "Connecticut"
  },
  {
    "postalCode": 5884726499,
    "address": "646 Lawrence Avenue, Oceola, California, 2255",
    "city": "Brandermill",
    "state": "Oregon"
  },
  {
    "postalCode": 9498745986,
    "address": "822 Calder Place, Calpine, Arkansas, 2091",
    "city": "Orason",
    "state": "New Jersey"
  },
  {
    "postalCode": 5122568928,
    "address": "858 Nixon Court, Bawcomville, Indiana, 4326",
    "city": "Vienna",
    "state": "Federated States Of Micronesia"
  },
  {
    "postalCode": 2179647701,
    "address": "655 Dakota Place, Harborton, Kentucky, 5356",
    "city": "Cavalero",
    "state": "Florida"
  },
  {
    "postalCode": 4607765928,
    "address": "571 Kent Avenue, Campo, Missouri, 2848",
    "city": "Sylvanite",
    "state": "Hawaii"
  },
  {
    "postalCode": 2195852986,
    "address": "781 Banker Street, Highland, District Of Columbia, 8228",
    "city": "Bennett",
    "state": "Georgia"
  },
  {
    "postalCode": 2825956487,
    "address": "127 Kensington Walk, Waterview, Palau, 1072",
    "city": "Montura",
    "state": "West Virginia"
  },
  {
    "postalCode": 5033828343,
    "address": "669 Farragut Road, Bellfountain, Pennsylvania, 5738",
    "city": "Bynum",
    "state": "New Mexico"
  },
  {
    "postalCode": 3034819526,
    "address": "878 Devon Avenue, Norvelt, Alaska, 4004",
    "city": "Otranto",
    "state": "Tennessee"
  },
  {
    "postalCode": 4783605803,
    "address": "612 Fay Court, Northridge, Iowa, 7769",
    "city": "Lodoga",
    "state": "South Carolina"
  },
  {
    "postalCode": 1842954699,
    "address": "876 Ridgewood Avenue, Sunriver, Virgin Islands, 7712",
    "city": "Muir",
    "state": "Delaware"
  },
  {
    "postalCode": 9808923811,
    "address": "821 Bay Parkway, Libertytown, Guam, 7859",
    "city": "Jacksonburg",
    "state": "Illinois"
  },
  {
    "postalCode": 2191864759,
    "address": "999 Fenimore Street, Brenton, Maine, 3744",
    "city": "Alfarata",
    "state": "American Samoa"
  },
  {
    "postalCode": 2679639975,
    "address": "976 Nolans Lane, Duryea, South Dakota, 6811",
    "city": "Glenshaw",
    "state": "Wisconsin"
  },
  {
    "postalCode": 3357834370,
    "address": "583 Gatling Place, Kieler, North Carolina, 2326",
    "city": "Beaulieu",
    "state": "Wyoming"
  },
  {
    "postalCode": 7313267139,
    "address": "851 Monument Walk, Richmond, Michigan, 9942",
    "city": "Turpin",
    "state": "New Hampshire"
  },
  {
    "postalCode": 9094450002,
    "address": "827 Emerald Street, Innsbrook, Utah, 8931",
    "city": "Jardine",
    "state": "Vermont"
  },
  {
    "postalCode": 8949625007,
    "address": "907 Thatford Avenue, Hiwasse, Nebraska, 7930",
    "city": "Devon",
    "state": "Virginia"
  },
  {
    "postalCode": 5670209115,
    "address": "950 Tillary Street, Sexton, Montana, 7207",
    "city": "Bayview",
    "state": "Texas"
  },
  {
    "postalCode": 5631778257,
    "address": "706 Lenox Road, Sanford, Oklahoma, 1135",
    "city": "Ferney",
    "state": "Puerto Rico"
  },
  {
    "postalCode": 4962917800,
    "address": "988 Bergen Street, Springdale, Louisiana, 9866",
    "city": "Klagetoh",
    "state": "Mississippi"
  },
  {
    "postalCode": 5280175176,
    "address": "701 Schenck Court, Frystown, Nevada, 1776",
    "city": "Chamizal",
    "state": "Arizona"
  },
  {
    "postalCode": 7262975049,
    "address": "726 Hall Street, Deltaville, Rhode Island, 4248",
    "city": "Hachita",
    "state": "North Dakota"
  },
  {
    "postalCode": 1836250943,
    "address": "463 India Street, Mulberry, Ohio, 8876",
    "city": "Ribera",
    "state": "Washington"
  },
  {
    "postalCode": 1296136118,
    "address": "208 Aberdeen Street, Courtland, Minnesota, 3764",
    "city": "Fedora",
    "state": "Alabama"
  },
  {
    "postalCode": 2941722293,
    "address": "226 Hudson Avenue, Collins, New York, 8178",
    "city": "Cade",
    "state": "Maryland"
  },
  {
    "postalCode": 8857376493,
    "address": "443 Interborough Parkway, Bakersville, Idaho, 505",
    "city": "Greensburg",
    "state": "Massachusetts"
  },
  {
    "postalCode": 9022138948,
    "address": "548 Schenectady Avenue, Grantville, Northern Mariana Islands, 876",
    "city": "Iola",
    "state": "Colorado"
  },
  {
    "postalCode": 6056692227,
    "address": "400 Havens Place, Mansfield, Marshall Islands, 958",
    "city": "Hasty",
    "state": "Connecticut"
  },
  {
    "postalCode": 5064108316,
    "address": "613 Powers Street, Wiscon, California, 5235",
    "city": "Welch",
    "state": "Oregon"
  },
  {
    "postalCode": 8236793776,
    "address": "807 Freeman Street, Eagletown, Arkansas, 6458",
    "city": "Coaldale",
    "state": "New Jersey"
  },
  {
    "postalCode": 1181289285,
    "address": "724 Court Square, Wattsville, Indiana, 193",
    "city": "Murillo",
    "state": "Federated States Of Micronesia"
  },
  {
    "postalCode": 8649623041,
    "address": "995 Forest Place, Biddle, Kentucky, 733",
    "city": "Wyoming",
    "state": "Florida"
  },
  {
    "postalCode": 9948346947,
    "address": "730 Aurelia Court, Tuskahoma, Missouri, 113",
    "city": "Dixonville",
    "state": "Hawaii"
  },
  {
    "postalCode": 9493182773,
    "address": "589 Seeley Street, Warsaw, District Of Columbia, 9797",
    "city": "Cressey",
    "state": "Georgia"
  },
  {
    "postalCode": 4405609963,
    "address": "831 Canton Court, Darrtown, Palau, 3539",
    "city": "Gila",
    "state": "West Virginia"
  },
  {
    "postalCode": 5254293016,
    "address": "664 Willow Street, Freelandville, Pennsylvania, 7848",
    "city": "Helen",
    "state": "New Mexico"
  },
  {
    "postalCode": 6016429155,
    "address": "325 Moore Place, Smeltertown, Alaska, 7631",
    "city": "Brady",
    "state": "Tennessee"
  },
  {
    "postalCode": 1598582319,
    "address": "281 Crawford Avenue, Tuttle, Iowa, 3043",
    "city": "Fontanelle",
    "state": "South Carolina"
  },
  {
    "postalCode": 2499842479,
    "address": "578 Oriental Boulevard, Cannondale, Virgin Islands, 3247",
    "city": "Chautauqua",
    "state": "Delaware"
  },
  {
    "postalCode": 7618044093,
    "address": "975 Evergreen Avenue, Urbana, Guam, 2307",
    "city": "Gardiner",
    "state": "Illinois"
  },
  {
    "postalCode": 8070531456,
    "address": "961 Green Street, Galesville, Maine, 2205",
    "city": "Blairstown",
    "state": "American Samoa"
  },
  {
    "postalCode": 4613354629,
    "address": "316 Everett Avenue, Rodanthe, South Dakota, 1229",
    "city": "Lemoyne",
    "state": "Wisconsin"
  },
  {
    "postalCode": 7674066347,
    "address": "184 Livonia Avenue, Rivers, North Carolina, 3544",
    "city": "Summertown",
    "state": "Wyoming"
  },
  {
    "postalCode": 5451441026,
    "address": "442 Lincoln Avenue, Hiseville, Michigan, 9098",
    "city": "Bendon",
    "state": "New Hampshire"
  },
  {
    "postalCode": 8336521096,
    "address": "626 Prescott Place, Canby, Utah, 7591",
    "city": "Cumberland",
    "state": "Vermont"
  },
  {
    "postalCode": 6185197591,
    "address": "667 Pineapple Street, Boomer, Nebraska, 1524",
    "city": "Coultervillle",
    "state": "Virginia"
  },
  {
    "postalCode": 7278970298,
    "address": "999 Erasmus Street, Nicholson, Montana, 1207",
    "city": "Caron",
    "state": "Texas"
  },
  {
    "postalCode": 6108268552,
    "address": "442 Virginia Place, Delwood, Oklahoma, 3049",
    "city": "Imperial",
    "state": "Puerto Rico"
  },
  {
    "postalCode": 2506235991,
    "address": "692 Willow Place, Allentown, Louisiana, 2293",
    "city": "Sunbury",
    "state": "Mississippi"
  },
  {
    "postalCode": 6878109202,
    "address": "945 Brighton Avenue, Levant, Nevada, 6997",
    "city": "Summerfield",
    "state": "Arizona"
  },
  {
    "postalCode": 3035161187,
    "address": "858 Knickerbocker Avenue, Succasunna, Rhode Island, 2656",
    "city": "Fowlerville",
    "state": "North Dakota"
  },
  {
    "postalCode": 4715452136,
    "address": "908 Columbia Street, Cawood, Ohio, 4263",
    "city": "Nord",
    "state": "Washington"
  },
  {
    "postalCode": 1594121192,
    "address": "912 Poly Place, Gorham, Minnesota, 8333",
    "city": "Delco",
    "state": "Alabama"
  },
  {
    "postalCode": 8218628562,
    "address": "231 Royce Place, Albrightsville, New York, 1038",
    "city": "Edinburg",
    "state": "Maryland"
  },
  {
    "postalCode": 6090012336,
    "address": "957 Eldert Street, Lupton, Idaho, 7392",
    "city": "Cutter",
    "state": "Massachusetts"
  },
  {
    "postalCode": 4615656714,
    "address": "560 Utica Avenue, Tonopah, Northern Mariana Islands, 4981",
    "city": "Thynedale",
    "state": "Colorado"
  },
  {
    "postalCode": 4536341156,
    "address": "168 Drew Street, Greenbackville, Marshall Islands, 6934",
    "city": "Glasgow",
    "state": "Connecticut"
  },
  {
    "postalCode": 6220608587,
    "address": "526 Decatur Street, Chelsea, California, 2030",
    "city": "Caln",
    "state": "Oregon"
  },
  {
    "postalCode": 7351658058,
    "address": "702 Coleman Street, Kenvil, Arkansas, 7549",
    "city": "Cornucopia",
    "state": "New Jersey"
  },
  {
    "postalCode": 1709273105,
    "address": "180 Billings Place, Lynn, Indiana, 5704",
    "city": "Belvoir",
    "state": "Federated States Of Micronesia"
  },
  {
    "postalCode": 9158094592,
    "address": "805 Monitor Street, Downsville, Kentucky, 4683",
    "city": "Eden",
    "state": "Florida"
  },
  {
    "postalCode": 3964449481,
    "address": "547 Lorraine Street, Graniteville, Missouri, 5192",
    "city": "Thatcher",
    "state": "Hawaii"
  },
  {
    "postalCode": 3840582842,
    "address": "546 Jardine Place, Grenelefe, District Of Columbia, 422",
    "city": "Iberia",
    "state": "Georgia"
  },
  {
    "postalCode": 4125783842,
    "address": "603 Columbus Place, Fannett, Palau, 3375",
    "city": "Clayville",
    "state": "West Virginia"
  },
  {
    "postalCode": 8587645477,
    "address": "391 Sapphire Street, Gallina, Pennsylvania, 1443",
    "city": "Bluffview",
    "state": "New Mexico"
  },
  {
    "postalCode": 9567216783,
    "address": "204 Johnson Street, Coloma, Alaska, 6614",
    "city": "Clarence",
    "state": "Tennessee"
  },
  {
    "postalCode": 6842601633,
    "address": "112 Polar Street, Colton, Iowa, 861",
    "city": "Richford",
    "state": "South Carolina"
  },
  {
    "postalCode": 3232673195,
    "address": "677 Bennet Court, Graball, Virgin Islands, 2223",
    "city": "Lindisfarne",
    "state": "Delaware"
  },
  {
    "postalCode": 3726449384,
    "address": "893 Varick Avenue, Why, Guam, 627",
    "city": "Rehrersburg",
    "state": "Illinois"
  },
  {
    "postalCode": 5057252900,
    "address": "500 Bokee Court, Brownlee, Maine, 5028",
    "city": "Woodlands",
    "state": "American Samoa"
  },
  {
    "postalCode": 4765763182,
    "address": "919 Adams Street, Oasis, South Dakota, 3002",
    "city": "Seymour",
    "state": "Wisconsin"
  },
  {
    "postalCode": 6310773657,
    "address": "372 Cleveland Street, Coalmont, North Carolina, 1190",
    "city": "Boling",
    "state": "Wyoming"
  },
  {
    "postalCode": 1958318591,
    "address": "683 Village Road, Wildwood, Michigan, 1029",
    "city": "Dana",
    "state": "New Hampshire"
  },
  {
    "postalCode": 2469685454,
    "address": "684 Willmohr Street, Orick, Utah, 7966",
    "city": "Freeburn",
    "state": "Vermont"
  },
  {
    "postalCode": 1269846399,
    "address": "401 Ide Court, Joes, Nebraska, 9756",
    "city": "Saticoy",
    "state": "Virginia"
  },
  {
    "postalCode": 7785578222,
    "address": "568 Woodrow Court, Dundee, Montana, 1526",
    "city": "Keyport",
    "state": "Texas"
  },
  {
    "postalCode": 2918656227,
    "address": "945 Lott Avenue, Riegelwood, Oklahoma, 1286",
    "city": "Avalon",
    "state": "Puerto Rico"
  },
  {
    "postalCode": 1470314547,
    "address": "775 Lorimer Street, Hannasville, Louisiana, 7341",
    "city": "Waterford",
    "state": "Mississippi"
  },
  {
    "postalCode": 8154979986,
    "address": "779 Hausman Street, Cassel, Nevada, 9267",
    "city": "Stonybrook",
    "state": "Arizona"
  },
  {
    "postalCode": 7233764446,
    "address": "913 Kent Street, Roderfield, Rhode Island, 9704",
    "city": "Bath",
    "state": "North Dakota"
  },
  {
    "postalCode": 7344478685,
    "address": "265 Tompkins Place, Vernon, Ohio, 1361",
    "city": "Epworth",
    "state": "Washington"
  },
  {
    "postalCode": 1953450400,
    "address": "188 Goodwin Place, Englevale, Minnesota, 9859",
    "city": "Mappsville",
    "state": "Alabama"
  },
  {
    "postalCode": 7509613422,
    "address": "565 Bergen Avenue, Berlin, New York, 5154",
    "city": "Remington",
    "state": "Maryland"
  },
  {
    "postalCode": 7292652878,
    "address": "677 Raleigh Place, Summerset, Idaho, 5163",
    "city": "Fairmount",
    "state": "Massachusetts"
  },
  {
    "postalCode": 4786210918,
    "address": "305 Temple Court, Wedgewood, Northern Mariana Islands, 3217",
    "city": "Neahkahnie",
    "state": "Colorado"
  },
  {
    "postalCode": 2764775245,
    "address": "767 Ryder Street, Frierson, Marshall Islands, 8743",
    "city": "Gadsden",
    "state": "Connecticut"
  },
  {
    "postalCode": 6625138373,
    "address": "964 Stuart Street, Gambrills, California, 8694",
    "city": "Farmington",
    "state": "Oregon"
  },
  {
    "postalCode": 9360453049,
    "address": "243 Kane Street, Coldiron, Arkansas, 9692",
    "city": "Chicopee",
    "state": "New Jersey"
  },
  {
    "postalCode": 6152339782,
    "address": "134 Vandervoort Place, National, Indiana, 124",
    "city": "Rushford",
    "state": "Federated States Of Micronesia"
  },
  {
    "postalCode": 1943416722,
    "address": "789 Dinsmore Place, Brewster, Kentucky, 3445",
    "city": "Leroy",
    "state": "Florida"
  },
  {
    "postalCode": 5376559266,
    "address": "699 Cornelia Street, Fostoria, Missouri, 9110",
    "city": "Caspar",
    "state": "Hawaii"
  },
  {
    "postalCode": 7010027483,
    "address": "313 Karweg Place, Driftwood, District Of Columbia, 2266",
    "city": "Chical",
    "state": "Georgia"
  },
  {
    "postalCode": 8771607975,
    "address": "274 Cove Lane, Vallonia, Palau, 2893",
    "city": "Dexter",
    "state": "West Virginia"
  },
  {
    "postalCode": 9473585061,
    "address": "465 Montague Street, Groveville, Pennsylvania, 3709",
    "city": "Hailesboro",
    "state": "New Mexico"
  },
  {
    "postalCode": 7607552747,
    "address": "569 Winthrop Street, Nescatunga, Alaska, 4698",
    "city": "Madrid",
    "state": "Tennessee"
  },
  {
    "postalCode": 9397319281,
    "address": "973 Beaumont Street, Eggertsville, Iowa, 3071",
    "city": "Logan",
    "state": "South Carolina"
  },
  {
    "postalCode": 8507993889,
    "address": "708 Harway Avenue, Hackneyville, Virgin Islands, 2444",
    "city": "Hampstead",
    "state": "Delaware"
  },
  {
    "postalCode": 8099564814,
    "address": "415 Cumberland Walk, Nicut, Guam, 8988",
    "city": "Moraida",
    "state": "Illinois"
  },
  {
    "postalCode": 4041812585,
    "address": "273 Amersfort Place, Bluetown, Maine, 6659",
    "city": "Vale",
    "state": "American Samoa"
  },
  {
    "postalCode": 9273719207,
    "address": "228 Beekman Place, Winston, South Dakota, 9699",
    "city": "Frank",
    "state": "Wisconsin"
  },
  {
    "postalCode": 7346450420,
    "address": "223 Rochester Avenue, Malo, North Carolina, 6503",
    "city": "Loma",
    "state": "Wyoming"
  },
  {
    "postalCode": 3232128071,
    "address": "324 Kermit Place, Curtice, Michigan, 2224",
    "city": "Norris",
    "state": "New Hampshire"
  },
  {
    "postalCode": 5918630507,
    "address": "922 Kingston Avenue, Corinne, Utah, 825",
    "city": "Warren",
    "state": "Vermont"
  },
  {
    "postalCode": 1930933978,
    "address": "908 Mill Street, Maplewood, Nebraska, 7776",
    "city": "Barstow",
    "state": "Virginia"
  },
  {
    "postalCode": 1765390181,
    "address": "605 Grove Place, Leming, Montana, 3107",
    "city": "Ilchester",
    "state": "Texas"
  },
  {
    "postalCode": 5382617022,
    "address": "307 Huntington Street, Sehili, Oklahoma, 6153",
    "city": "Fulford",
    "state": "Puerto Rico"
  },
  {
    "postalCode": 1511154894,
    "address": "697 Hubbard Street, Bison, Louisiana, 5219",
    "city": "Greenbush",
    "state": "Mississippi"
  },
  {
    "postalCode": 3414331475,
    "address": "320 Clarendon Road, Rutherford, Nevada, 7844",
    "city": "Trucksville",
    "state": "Arizona"
  },
  {
    "postalCode": 5710053388,
    "address": "825 Bragg Court, Faxon, Rhode Island, 3548",
    "city": "Broadlands",
    "state": "North Dakota"
  },
  {
    "postalCode": 9277861368,
    "address": "817 Wyona Street, Carlton, Ohio, 4186",
    "city": "Woodburn",
    "state": "Washington"
  },
  {
    "postalCode": 8047455029,
    "address": "128 Frank Court, Greenock, Minnesota, 9924",
    "city": "Enoree",
    "state": "Alabama"
  },
  {
    "postalCode": 4221690163,
    "address": "865 Lombardy Street, Fivepointville, New York, 4599",
    "city": "Welda",
    "state": "Maryland"
  },
  {
    "postalCode": 5788763013,
    "address": "215 Sutton Street, Tivoli, Idaho, 953",
    "city": "Hardyville",
    "state": "Massachusetts"
  },
  {
    "postalCode": 1651875415,
    "address": "155 Blake Court, Starks, Northern Mariana Islands, 5702",
    "city": "Cleary",
    "state": "Colorado"
  },
  {
    "postalCode": 6652390164,
    "address": "436 McKibben Street, Stewart, Marshall Islands, 5380",
    "city": "Canoochee",
    "state": "Connecticut"
  },
  {
    "postalCode": 9835702232,
    "address": "579 Agate Court, Unionville, California, 1549",
    "city": "Soudan",
    "state": "Oregon"
  },
  {
    "postalCode": 8736258044,
    "address": "884 Varanda Place, Jamestown, Arkansas, 781",
    "city": "Davenport",
    "state": "New Jersey"
  },
  {
    "postalCode": 4892490846,
    "address": "409 Charles Place, Trail, Indiana, 655",
    "city": "Dante",
    "state": "Federated States Of Micronesia"
  },
  {
    "postalCode": 9239233584,
    "address": "810 Livingston Street, Kingstowne, Kentucky, 8858",
    "city": "Longbranch",
    "state": "Florida"
  },
  {
    "postalCode": 2024079636,
    "address": "716 Kiely Place, Blodgett, Missouri, 5545",
    "city": "Dawn",
    "state": "Hawaii"
  },
  {
    "postalCode": 3265695694,
    "address": "432 High Street, Advance, District Of Columbia, 8351",
    "city": "Rossmore",
    "state": "Georgia"
  },
  {
    "postalCode": 5993743032,
    "address": "823 Taaffe Place, Williams, Palau, 6729",
    "city": "Rosewood",
    "state": "West Virginia"
  },
  {
    "postalCode": 3151671473,
    "address": "605 Newport Street, Gordon, Pennsylvania, 7791",
    "city": "Dotsero",
    "state": "New Mexico"
  },
  {
    "postalCode": 6067126359,
    "address": "119 Elm Avenue, Greenfields, Alaska, 2204",
    "city": "Trona",
    "state": "Tennessee"
  },
  {
    "postalCode": 8987900222,
    "address": "591 Herkimer Street, Chapin, Iowa, 5719",
    "city": "Kula",
    "state": "South Carolina"
  },
  {
    "postalCode": 4549375613,
    "address": "244 Harbor Lane, Sunnyside, Virgin Islands, 9872",
    "city": "Bethany",
    "state": "Delaware"
  },
  {
    "postalCode": 3474424747,
    "address": "267 Garnet Street, Canterwood, Guam, 7835",
    "city": "Lookingglass",
    "state": "Illinois"
  },
  {
    "postalCode": 5166802486,
    "address": "495 Conway Street, Cumminsville, Maine, 1470",
    "city": "Accoville",
    "state": "American Samoa"
  },
  {
    "postalCode": 9678531908,
    "address": "107 Logan Street, Vaughn, South Dakota, 4113",
    "city": "Guilford",
    "state": "Wisconsin"
  },
  {
    "postalCode": 2303915320,
    "address": "210 Frost Street, Sugartown, North Carolina, 3415",
    "city": "Terlingua",
    "state": "Wyoming"
  },
  {
    "postalCode": 3489723266,
    "address": "225 Radde Place, Moscow, Michigan, 5167",
    "city": "Juarez",
    "state": "New Hampshire"
  },
  {
    "postalCode": 8129136209,
    "address": "459 Tompkins Avenue, Vowinckel, Utah, 7465",
    "city": "Wawona",
    "state": "Vermont"
  },
  {
    "postalCode": 4073278165,
    "address": "325 Revere Place, Savage, Nebraska, 9507",
    "city": "Chilton",
    "state": "Virginia"
  },
  {
    "postalCode": 6431362538,
    "address": "901 Eaton Court, Greenwich, Montana, 2647",
    "city": "Dowling",
    "state": "Texas"
  },
  {
    "postalCode": 7288726254,
    "address": "271 Branton Street, Tooleville, Oklahoma, 3395",
    "city": "Westerville",
    "state": "Puerto Rico"
  },
  {
    "postalCode": 9601510967,
    "address": "714 Girard Street, Catherine, Louisiana, 7985",
    "city": "Roulette",
    "state": "Mississippi"
  },
  {
    "postalCode": 8399021049,
    "address": "405 Rost Place, Yettem, Nevada, 4492",
    "city": "Salunga",
    "state": "Arizona"
  },
  {
    "postalCode": 7277063358,
    "address": "383 Vine Street, Robinson, Rhode Island, 7075",
    "city": "Suitland",
    "state": "North Dakota"
  },
  {
    "postalCode": 4998591257,
    "address": "302 Hazel Court, Hayden, Ohio, 5300",
    "city": "Zortman",
    "state": "Washington"
  },
  {
    "postalCode": 2428444334,
    "address": "394 Wallabout Street, Carrsville, Minnesota, 6726",
    "city": "Silkworth",
    "state": "Alabama"
  },
  {
    "postalCode": 5175194798,
    "address": "215 Montauk Court, Snyderville, New York, 3282",
    "city": "Sperryville",
    "state": "Maryland"
  },
  {
    "postalCode": 7811216457,
    "address": "296 Brightwater Court, Morningside, Idaho, 8204",
    "city": "Whitmer",
    "state": "Massachusetts"
  },
  {
    "postalCode": 8629230323,
    "address": "225 Canda Avenue, Hoagland, Northern Mariana Islands, 7401",
    "city": "Riviera",
    "state": "Colorado"
  },
  {
    "postalCode": 2749203245,
    "address": "972 Lois Avenue, Crayne, Marshall Islands, 9717",
    "city": "Gibbsville",
    "state": "Connecticut"
  },
  {
    "postalCode": 3825628818,
    "address": "664 Suydam Street, Manila, California, 3866",
    "city": "Grill",
    "state": "Oregon"
  },
  {
    "postalCode": 2175721988,
    "address": "347 Wyckoff Avenue, Wheatfields, Arkansas, 8527",
    "city": "Chemung",
    "state": "New Jersey"
  },
  {
    "postalCode": 6597529523,
    "address": "887 Allen Avenue, Fillmore, Indiana, 9917",
    "city": "Mammoth",
    "state": "Federated States Of Micronesia"
  },
  {
    "postalCode": 7261647727,
    "address": "803 Oceanic Avenue, Barclay, Kentucky, 9484",
    "city": "Roland",
    "state": "Florida"
  },
  {
    "postalCode": 9825652177,
    "address": "922 Landis Court, Goldfield, Missouri, 8232",
    "city": "Virgie",
    "state": "Hawaii"
  },
  {
    "postalCode": 4943860728,
    "address": "979 Leonard Street, Emerald, District Of Columbia, 5815",
    "city": "Crucible",
    "state": "Georgia"
  },
  {
    "postalCode": 4309347163,
    "address": "820 Louis Place, Bowden, Palau, 7460",
    "city": "Denio",
    "state": "West Virginia"
  },
  {
    "postalCode": 2852417898,
    "address": "428 Christopher Avenue, Albany, Pennsylvania, 8539",
    "city": "Henrietta",
    "state": "New Mexico"
  },
  {
    "postalCode": 2988285164,
    "address": "691 Chestnut Avenue, Bartley, Alaska, 4743",
    "city": "Whitehaven",
    "state": "Tennessee"
  },
  {
    "postalCode": 8937074017,
    "address": "831 Sackett Street, Dorneyville, Iowa, 4019",
    "city": "Marshall",
    "state": "South Carolina"
  },
  {
    "postalCode": 8874796144,
    "address": "747 Lamont Court, Whitestone, Virgin Islands, 7740",
    "city": "Newkirk",
    "state": "Delaware"
  },
  {
    "postalCode": 6163094759,
    "address": "291 Clara Street, Takilma, Guam, 9915",
    "city": "Hinsdale",
    "state": "Illinois"
  },
  {
    "postalCode": 7124089559,
    "address": "176 Irvington Place, Chestnut, Maine, 5399",
    "city": "Northchase",
    "state": "American Samoa"
  },
  {
    "postalCode": 9903982354,
    "address": "102 Kenmore Court, Blackgum, South Dakota, 4370",
    "city": "Dragoon",
    "state": "Wisconsin"
  },
  {
    "postalCode": 6346344386,
    "address": "452 Dorchester Road, Laurelton, North Carolina, 4109",
    "city": "Strong",
    "state": "Wyoming"
  },
  {
    "postalCode": 1770869429,
    "address": "545 Gerald Court, Villarreal, Michigan, 4613",
    "city": "Elwood",
    "state": "New Hampshire"
  },
  {
    "postalCode": 1169083962,
    "address": "386 Elton Street, Enetai, Utah, 4310",
    "city": "Winchester",
    "state": "Vermont"
  },
  {
    "postalCode": 3900045210,
    "address": "545 Ridge Boulevard, Sanders, Nebraska, 6809",
    "city": "Osmond",
    "state": "Virginia"
  },
  {
    "postalCode": 9404654227,
    "address": "902 Suydam Place, Marbury, Montana, 3647",
    "city": "Linganore",
    "state": "Texas"
  },
  {
    "postalCode": 8194993815,
    "address": "456 Harkness Avenue, Muse, Oklahoma, 4976",
    "city": "Westboro",
    "state": "Puerto Rico"
  },
  {
    "postalCode": 6696552417,
    "address": "438 Bevy Court, Comptche, Louisiana, 123",
    "city": "Marenisco",
    "state": "Mississippi"
  },
  {
    "postalCode": 9713976743,
    "address": "626 Nassau Street, Choctaw, Nevada, 1521",
    "city": "Mahtowa",
    "state": "Arizona"
  },
  {
    "postalCode": 9308287689,
    "address": "392 Veronica Place, Jeff, Rhode Island, 9329",
    "city": "Springhill",
    "state": "North Dakota"
  },
  {
    "postalCode": 6669528871,
    "address": "612 Fillmore Place, Clarksburg, Ohio, 8110",
    "city": "Newcastle",
    "state": "Washington"
  },
  {
    "postalCode": 7551803488,
    "address": "625 Foster Avenue, Stagecoach, Minnesota, 3791",
    "city": "Edgewater",
    "state": "Alabama"
  },
  {
    "postalCode": 9429627679,
    "address": "367 Ovington Avenue, Emory, New York, 549",
    "city": "Kenwood",
    "state": "Maryland"
  },
  {
    "postalCode": 5216416458,
    "address": "763 Hoyts Lane, Wyano, Idaho, 4358",
    "city": "Interlochen",
    "state": "Massachusetts"
  },
  {
    "postalCode": 3318085062,
    "address": "335 Cooper Street, Temperanceville, Northern Mariana Islands, 6758",
    "city": "Belgreen",
    "state": "Colorado"
  },
  {
    "postalCode": 7134034118,
    "address": "240 Auburn Place, Carrizo, Marshall Islands, 3313",
    "city": "Wintersburg",
    "state": "Connecticut"
  },
  {
    "postalCode": 9561498994,
    "address": "380 Wilson Street, Disautel, California, 7907",
    "city": "Bangor",
    "state": "Oregon"
  },
  {
    "postalCode": 1194282655,
    "address": "861 Georgia Avenue, Tryon, Arkansas, 908",
    "city": "Shelby",
    "state": "New Jersey"
  },
  {
    "postalCode": 9095549226,
    "address": "501 Vandam Street, Balm, Indiana, 9655",
    "city": "Spelter",
    "state": "Federated States Of Micronesia"
  },
  {
    "postalCode": 2888065667,
    "address": "840 Albee Square, Coral, Kentucky, 2536",
    "city": "Brantleyville",
    "state": "Florida"
  },
  {
    "postalCode": 6424450830,
    "address": "750 Bowery Street, Charco, Missouri, 6043",
    "city": "Beaverdale",
    "state": "Hawaii"
  },
  {
    "postalCode": 5775685471,
    "address": "849 Townsend Street, Lund, District Of Columbia, 4073",
    "city": "Hartsville/Hartley",
    "state": "Georgia"
  },
  {
    "postalCode": 6049505065,
    "address": "569 Lawrence Street, Fairforest, Palau, 9634",
    "city": "Taft",
    "state": "West Virginia"
  },
  {
    "postalCode": 4936313752,
    "address": "681 Canarsie Road, Woodruff, Pennsylvania, 821",
    "city": "Nipinnawasee",
    "state": "New Mexico"
  },
  {
    "postalCode": 7267862983,
    "address": "621 Porter Avenue, Edmund, Alaska, 1481",
    "city": "Farmers",
    "state": "Tennessee"
  },
  {
    "postalCode": 3833868213,
    "address": "670 Louise Terrace, Cornfields, Iowa, 8907",
    "city": "Topanga",
    "state": "South Carolina"
  },
  {
    "postalCode": 5153520594,
    "address": "925 Victor Road, Santel, Virgin Islands, 8158",
    "city": "Guthrie",
    "state": "Delaware"
  },
  {
    "postalCode": 4491935685,
    "address": "855 Montauk Avenue, Glenbrook, Guam, 5892",
    "city": "Edenburg",
    "state": "Illinois"
  },
  {
    "postalCode": 3280522928,
    "address": "978 Rockaway Parkway, Dunnavant, Maine, 8894",
    "city": "Waikele",
    "state": "American Samoa"
  },
  {
    "postalCode": 1781928844,
    "address": "202 Bainbridge Street, Stollings, South Dakota, 7875",
    "city": "Jenkinsville",
    "state": "Wisconsin"
  },
  {
    "postalCode": 2492631226,
    "address": "998 Mill Avenue, Tedrow, North Carolina, 2340",
    "city": "Bannock",
    "state": "Wyoming"
  },
  {
    "postalCode": 1344965567,
    "address": "643 Rogers Avenue, Sabillasville, Michigan, 3246",
    "city": "Sharon",
    "state": "New Hampshire"
  },
  {
    "postalCode": 7578534489,
    "address": "619 Maujer Street, Cloverdale, Utah, 7521",
    "city": "Norwood",
    "state": "Vermont"
  },
  {
    "postalCode": 2034101712,
    "address": "720 Fanchon Place, Condon, Nebraska, 9054",
    "city": "Harleigh",
    "state": "Virginia"
  },
  {
    "postalCode": 6719335941,
    "address": "150 Reed Street, Trexlertown, Montana, 6725",
    "city": "Benson",
    "state": "Texas"
  },
  {
    "postalCode": 3066752343,
    "address": "761 Aster Court, Hillsboro, Oklahoma, 1121",
    "city": "Bourg",
    "state": "Puerto Rico"
  },
  {
    "postalCode": 5091517586,
    "address": "756 Guernsey Street, Foxworth, Louisiana, 135",
    "city": "Umapine",
    "state": "Mississippi"
  },
  {
    "postalCode": 4553154678,
    "address": "258 Garland Court, Cazadero, Nevada, 7905",
    "city": "Leland",
    "state": "Arizona"
  },
  {
    "postalCode": 5401947892,
    "address": "674 Dewitt Avenue, Elliston, Rhode Island, 7763",
    "city": "Kiskimere",
    "state": "North Dakota"
  },
  {
    "postalCode": 3713600567,
    "address": "477 Moffat Street, Baden, Ohio, 1517",
    "city": "Catharine",
    "state": "Washington"
  },
  {
    "postalCode": 6038938901,
    "address": "160 Wogan Terrace, Jacksonwald, Minnesota, 4267",
    "city": "Mathews",
    "state": "Alabama"
  },
  {
    "postalCode": 2570838203,
    "address": "956 Humboldt Street, Dellview, New York, 8282",
    "city": "Itmann",
    "state": "Maryland"
  },
  {
    "postalCode": 5330151822,
    "address": "349 Thornton Street, Fresno, Idaho, 2293",
    "city": "Derwood",
    "state": "Massachusetts"
  },
  {
    "postalCode": 5149255370,
    "address": "913 Gelston Avenue, Harviell, Northern Mariana Islands, 3957",
    "city": "Coventry",
    "state": "Colorado"
  },
  {
    "postalCode": 3347610650,
    "address": "853 Granite Street, Ada, Marshall Islands, 7453",
    "city": "Beyerville",
    "state": "Connecticut"
  },
  {
    "postalCode": 6313464897,
    "address": "644 Box Street, Detroit, California, 4518",
    "city": "Emison",
    "state": "Oregon"
  },
  {
    "postalCode": 9803546346,
    "address": "122 Gates Avenue, Wheaton, Arkansas, 3265",
    "city": "Adelino",
    "state": "New Jersey"
  },
  {
    "postalCode": 7228334113,
    "address": "733 Truxton Street, Morgandale, Indiana, 5811",
    "city": "Eagleville",
    "state": "Federated States Of Micronesia"
  },
  {
    "postalCode": 6203891656,
    "address": "188 Campus Road, Ballico, Kentucky, 2158",
    "city": "Templeton",
    "state": "Florida"
  },
  {
    "postalCode": 5014780393,
    "address": "287 Bartlett Street, Boykin, Missouri, 8220",
    "city": "Loomis",
    "state": "Hawaii"
  },
  {
    "postalCode": 9158234080,
    "address": "108 Vista Place, Homestead, District Of Columbia, 2460",
    "city": "Alden",
    "state": "Georgia"
  },
  {
    "postalCode": 4595031055,
    "address": "374 Dumont Avenue, Cresaptown, Palau, 3588",
    "city": "Tilleda",
    "state": "West Virginia"
  },
  {
    "postalCode": 2001617276,
    "address": "775 Grattan Street, Hatteras, Pennsylvania, 1665",
    "city": "Worcester",
    "state": "New Mexico"
  },
  {
    "postalCode": 2040382965,
    "address": "204 Indiana Place, Tioga, Alaska, 1933",
    "city": "Beechmont",
    "state": "Tennessee"
  },
  {
    "postalCode": 6798232998,
    "address": "420 Remsen Avenue, Elbert, Iowa, 1926",
    "city": "Thomasville",
    "state": "South Carolina"
  },
  {
    "postalCode": 7062625749,
    "address": "458 Fleet Place, Tibbie, Virgin Islands, 4785",
    "city": "Blanco",
    "state": "Delaware"
  },
  {
    "postalCode": 1910075130,
    "address": "338 Pooles Lane, Golconda, Guam, 8818",
    "city": "Ahwahnee",
    "state": "Illinois"
  },
  {
    "postalCode": 6797912390,
    "address": "452 Jamison Lane, Ronco, Maine, 6938",
    "city": "Lumberton",
    "state": "American Samoa"
  },
  {
    "postalCode": 1806507907,
    "address": "387 Story Street, Cascades, South Dakota, 5818",
    "city": "Soham",
    "state": "Wisconsin"
  },
  {
    "postalCode": 2087478498,
    "address": "993 Lake Place, Century, North Carolina, 9312",
    "city": "Nash",
    "state": "Wyoming"
  },
  {
    "postalCode": 9985572958,
    "address": "456 Rugby Road, Rosedale, Michigan, 4299",
    "city": "Ezel",
    "state": "New Hampshire"
  },
  {
    "postalCode": 1269381896,
    "address": "625 Wythe Avenue, Gouglersville, Utah, 2551",
    "city": "Franklin",
    "state": "Vermont"
  },
  {
    "postalCode": 5626174244,
    "address": "250 Quentin Road, Bridgetown, Nebraska, 9980",
    "city": "Diaperville",
    "state": "Virginia"
  },
  {
    "postalCode": 3113954250,
    "address": "243 Duryea Court, Outlook, Montana, 1971",
    "city": "Chloride",
    "state": "Texas"
  },
  {
    "postalCode": 3487964590,
    "address": "812 Conover Street, Waumandee, Oklahoma, 7200",
    "city": "Brutus",
    "state": "Puerto Rico"
  },
  {
    "postalCode": 8636389464,
    "address": "967 Jodie Court, Torboy, Louisiana, 9408",
    "city": "Gloucester",
    "state": "Mississippi"
  },
  {
    "postalCode": 2177859514,
    "address": "215 Times Placez, Bentonville, Nevada, 4260",
    "city": "Lloyd",
    "state": "Arizona"
  },
  {
    "postalCode": 3111189151,
    "address": "726 Fair Street, Gardners, Rhode Island, 3481",
    "city": "Roosevelt",
    "state": "North Dakota"
  },
  {
    "postalCode": 5065758578,
    "address": "556 Garden Place, Cliff, Ohio, 8001",
    "city": "Fingerville",
    "state": "Washington"
  },
  {
    "postalCode": 9214000324,
    "address": "418 Howard Place, Stockwell, Minnesota, 4090",
    "city": "Elliott",
    "state": "Alabama"
  },
  {
    "postalCode": 5100322627,
    "address": "315 Brooklyn Road, Camptown, New York, 9210",
    "city": "Chalfant",
    "state": "Maryland"
  },
  {
    "postalCode": 6314613831,
    "address": "824 Reeve Place, Thornport, Idaho, 5387",
    "city": "Russellville",
    "state": "Massachusetts"
  },
  {
    "postalCode": 9087415937,
    "address": "940 Dean Street, Geyserville, Northern Mariana Islands, 8402",
    "city": "Walton",
    "state": "Colorado"
  },
  {
    "postalCode": 8116771850,
    "address": "935 Schermerhorn Street, Homeworth, Marshall Islands, 4791",
    "city": "Oberlin",
    "state": "Connecticut"
  },
  {
    "postalCode": 9829893574,
    "address": "967 Highland Place, Evergreen, California, 2537",
    "city": "Calverton",
    "state": "Oregon"
  },
  {
    "postalCode": 5301088430,
    "address": "780 Dwight Street, Healy, Arkansas, 4588",
    "city": "Blende",
    "state": "New Jersey"
  },
  {
    "postalCode": 5113659727,
    "address": "624 Crosby Avenue, Marne, Indiana, 1827",
    "city": "Ebro",
    "state": "Federated States Of Micronesia"
  },
  {
    "postalCode": 8397507569,
    "address": "124 Cypress Avenue, Herlong, Kentucky, 7063",
    "city": "Wollochet",
    "state": "Florida"
  },
  {
    "postalCode": 5885011072,
    "address": "186 Irving Avenue, Finderne, Missouri, 7838",
    "city": "Rosburg",
    "state": "Hawaii"
  },
  {
    "postalCode": 1908766190,
    "address": "250 Marconi Place, Falconaire, District Of Columbia, 5202",
    "city": "Bartonsville",
    "state": "Georgia"
  },
  {
    "postalCode": 4273096663,
    "address": "510 Jaffray Street, Wescosville, Palau, 7272",
    "city": "Islandia",
    "state": "West Virginia"
  },
  {
    "postalCode": 5672073689,
    "address": "642 Beverley Road, Blue, Pennsylvania, 3179",
    "city": "Naomi",
    "state": "New Mexico"
  },
  {
    "postalCode": 7675490283,
    "address": "478 Bridge Street, Robinette, Alaska, 600",
    "city": "Rote",
    "state": "Tennessee"
  },
  {
    "postalCode": 2642546011,
    "address": "804 Prospect Avenue, Walland, Iowa, 9124",
    "city": "Faywood",
    "state": "South Carolina"
  },
  {
    "postalCode": 9750993358,
    "address": "120 Elliott Place, Hendersonville, Virgin Islands, 8092",
    "city": "Hoehne",
    "state": "Delaware"
  },
  {
    "postalCode": 3999542230,
    "address": "705 Sandford Street, Klondike, Guam, 1884",
    "city": "Hessville",
    "state": "Illinois"
  },
  {
    "postalCode": 3510673075,
    "address": "465 Kansas Place, Winesburg, Maine, 9000",
    "city": "Caberfae",
    "state": "American Samoa"
  },
  {
    "postalCode": 8056336799,
    "address": "288 Rapelye Street, Ticonderoga, South Dakota, 419",
    "city": "Shaft",
    "state": "Wisconsin"
  },
  {
    "postalCode": 5851975238,
    "address": "565 Jerome Avenue, Monument, North Carolina, 1220",
    "city": "Cashtown",
    "state": "Wyoming"
  },
  {
    "postalCode": 6405686275,
    "address": "447 Kay Court, Washington, Michigan, 8996",
    "city": "Snowville",
    "state": "New Hampshire"
  },
  {
    "postalCode": 3299237075,
    "address": "886 Just Court, Allamuchy, Utah, 6056",
    "city": "Longoria",
    "state": "Vermont"
  },
  {
    "postalCode": 5419531109,
    "address": "591 Colin Place, Celeryville, Nebraska, 6827",
    "city": "Alafaya",
    "state": "Virginia"
  },
  {
    "postalCode": 4474708180,
    "address": "664 Bristol Street, Grimsley, Montana, 6359",
    "city": "Alleghenyville",
    "state": "Texas"
  },
  {
    "postalCode": 9711637459,
    "address": "251 Pierrepont Place, Gulf, Oklahoma, 1574",
    "city": "Wanamie",
    "state": "Puerto Rico"
  },
  {
    "postalCode": 2343816950,
    "address": "949 Hemlock Street, Tyro, Louisiana, 4737",
    "city": "Ruffin",
    "state": "Mississippi"
  },
  {
    "postalCode": 6120939346,
    "address": "402 Boerum Street, Fairlee, Nevada, 2887",
    "city": "Bradenville",
    "state": "Arizona"
  },
  {
    "postalCode": 2953359994,
    "address": "231 Ainslie Street, Delshire, Rhode Island, 6705",
    "city": "Troy",
    "state": "North Dakota"
  },
  {
    "postalCode": 2945794775,
    "address": "429 Lefferts Avenue, Herald, Ohio, 7627",
    "city": "Morriston",
    "state": "Washington"
  },
  {
    "postalCode": 4407613283,
    "address": "187 Otsego Street, Bloomington, Minnesota, 7485",
    "city": "Siglerville",
    "state": "Alabama"
  },
  {
    "postalCode": 2589192442,
    "address": "147 Ryder Avenue, Martinsville, New York, 1571",
    "city": "Crisman",
    "state": "Maryland"
  },
  {
    "postalCode": 5085934905,
    "address": "121 Fillmore Avenue, Toftrees, Idaho, 6470",
    "city": "Brandywine",
    "state": "Massachusetts"
  },
  {
    "postalCode": 5425088527,
    "address": "547 Centre Street, Smock, Northern Mariana Islands, 2728",
    "city": "Williston",
    "state": "Colorado"
  },
  {
    "postalCode": 9806335000,
    "address": "365 Railroad Avenue, Coyote, Marshall Islands, 5624",
    "city": "Dale",
    "state": "Connecticut"
  },
  {
    "postalCode": 5160404517,
    "address": "313 Rewe Street, Bethpage, California, 1610",
    "city": "Kimmell",
    "state": "Oregon"
  },
  {
    "postalCode": 7237225289,
    "address": "929 Carroll Street, Nettie, Arkansas, 4742",
    "city": "Glendale",
    "state": "New Jersey"
  },
  {
    "postalCode": 6599647775,
    "address": "186 Nelson Street, Brownsville, Indiana, 3357",
    "city": "Holtville",
    "state": "Federated States Of Micronesia"
  },
  {
    "postalCode": 2517043634,
    "address": "528 Dewey Place, Dennard, Kentucky, 9352",
    "city": "Datil",
    "state": "Florida"
  },
  {
    "postalCode": 3742476425,
    "address": "242 Arlington Avenue, Byrnedale, Missouri, 7085",
    "city": "Falmouth",
    "state": "Hawaii"
  },
  {
    "postalCode": 3212195106,
    "address": "194 Himrod Street, Statenville, District Of Columbia, 3727",
    "city": "Katonah",
    "state": "Georgia"
  },
  {
    "postalCode": 9364778377,
    "address": "908 Farragut Place, Rivera, Palau, 7928",
    "city": "Heil",
    "state": "West Virginia"
  },
  {
    "postalCode": 3122708092,
    "address": "581 Woodpoint Road, Windsor, Pennsylvania, 8587",
    "city": "Wanship",
    "state": "New Mexico"
  },
  {
    "postalCode": 9758051412,
    "address": "792 Linwood Street, Navarre, Alaska, 3830",
    "city": "Adamstown",
    "state": "Tennessee"
  },
  {
    "postalCode": 2378700582,
    "address": "219 Furman Avenue, Concho, Iowa, 1757",
    "city": "Weedville",
    "state": "South Carolina"
  },
  {
    "postalCode": 5865805720,
    "address": "854 Bedford Place, Belva, Virgin Islands, 1856",
    "city": "Flintville",
    "state": "Delaware"
  },
  {
    "postalCode": 3411881897,
    "address": "631 Ford Street, Belfair, Guam, 6443",
    "city": "Norfolk",
    "state": "Illinois"
  },
  {
    "postalCode": 2888077629,
    "address": "830 Horace Court, Bellamy, Maine, 3392",
    "city": "Stewartville",
    "state": "American Samoa"
  },
  {
    "postalCode": 1257666079,
    "address": "391 Bridgewater Street, Bentley, South Dakota, 1958",
    "city": "Crown",
    "state": "Wisconsin"
  },
  {
    "postalCode": 2763521726,
    "address": "367 Lawton Street, Waiohinu, North Carolina, 6987",
    "city": "Lacomb",
    "state": "Wyoming"
  },
  {
    "postalCode": 3386091390,
    "address": "571 Middleton Street, Gorst, Michigan, 6762",
    "city": "Mapletown",
    "state": "New Hampshire"
  },
  {
    "postalCode": 7915366400,
    "address": "377 Cranberry Street, Vandiver, Utah, 2289",
    "city": "Clarktown",
    "state": "Vermont"
  },
  {
    "postalCode": 3371484773,
    "address": "989 McKinley Avenue, Riceville, Nebraska, 3780",
    "city": "Lindcove",
    "state": "Virginia"
  },
  {
    "postalCode": 5781366714,
    "address": "523 Coventry Road, Lopezo, Montana, 1379",
    "city": "Romeville",
    "state": "Texas"
  },
  {
    "postalCode": 3769397822,
    "address": "259 Pleasant Place, Brethren, Oklahoma, 3365",
    "city": "Dixie",
    "state": "Puerto Rico"
  },
  {
    "postalCode": 3292701806,
    "address": "975 Falmouth Street, Lafferty, Louisiana, 7011",
    "city": "Yorklyn",
    "state": "Mississippi"
  },
  {
    "postalCode": 1386319587,
    "address": "681 Berriman Street, Cobbtown, Nevada, 7984",
    "city": "Yukon",
    "state": "Arizona"
  },
  {
    "postalCode": 2400186638,
    "address": "861 Macdougal Street, Matthews, Rhode Island, 5792",
    "city": "Nogal",
    "state": "North Dakota"
  },
  {
    "postalCode": 8375472601,
    "address": "691 Dank Court, Clinton, Ohio, 1991",
    "city": "Eastvale",
    "state": "Washington"
  },
  {
    "postalCode": 2095955233,
    "address": "329 Exeter Street, Glidden, Minnesota, 908",
    "city": "Trinway",
    "state": "Alabama"
  },
  {
    "postalCode": 9561846681,
    "address": "508 Clinton Street, Marion, New York, 8336",
    "city": "Riverton",
    "state": "Maryland"
  },
  {
    "postalCode": 2518610988,
    "address": "602 Berkeley Place, Southview, Idaho, 9294",
    "city": "Springville",
    "state": "Massachusetts"
  },
  {
    "postalCode": 1619360636,
    "address": "282 Schenck Avenue, Venice, Northern Mariana Islands, 188",
    "city": "Taycheedah",
    "state": "Colorado"
  },
  {
    "postalCode": 3358347618,
    "address": "906 Tabor Court, Leyner, Marshall Islands, 2682",
    "city": "Orin",
    "state": "Connecticut"
  },
  {
    "postalCode": 8589981334,
    "address": "812 Schweikerts Walk, Boyd, California, 3232",
    "city": "Keller",
    "state": "Oregon"
  },
  {
    "postalCode": 1759187417,
    "address": "626 Conselyea Street, Inkerman, Arkansas, 1045",
    "city": "Saranap",
    "state": "New Jersey"
  },
  {
    "postalCode": 7666163119,
    "address": "552 Vermont Court, Martell, Indiana, 4511",
    "city": "Waterloo",
    "state": "Federated States Of Micronesia"
  },
  {
    "postalCode": 5351851288,
    "address": "115 Vanderveer Street, Magnolia, Kentucky, 3090",
    "city": "Jackpot",
    "state": "Florida"
  },
  {
    "postalCode": 2289623058,
    "address": "161 Sumner Place, Cherokee, Missouri, 1553",
    "city": "Sanborn",
    "state": "Hawaii"
  },
  {
    "postalCode": 4566535252,
    "address": "330 Joval Court, Indio, District Of Columbia, 1142",
    "city": "Jugtown",
    "state": "Georgia"
  },
  {
    "postalCode": 4160585455,
    "address": "196 Seba Avenue, Ogema, Palau, 4532",
    "city": "Elfrida",
    "state": "West Virginia"
  },
  {
    "postalCode": 4592979274,
    "address": "194 Juliana Place, Wakarusa, Pennsylvania, 775",
    "city": "Westphalia",
    "state": "New Mexico"
  },
  {
    "postalCode": 3527143589,
    "address": "950 Chase Court, Ruckersville, Alaska, 3974",
    "city": "Haring",
    "state": "Tennessee"
  },
  {
    "postalCode": 6826708256,
    "address": "588 Highland Boulevard, Zarephath, Iowa, 6495",
    "city": "Machias",
    "state": "South Carolina"
  },
  {
    "postalCode": 2067153941,
    "address": "925 Ashland Place, Como, Virgin Islands, 6779",
    "city": "Staples",
    "state": "Delaware"
  },
  {
    "postalCode": 9154861907,
    "address": "609 Halsey Street, Gilmore, Guam, 2022",
    "city": "Deseret",
    "state": "Illinois"
  },
  {
    "postalCode": 5663200102,
    "address": "697 Glenmore Avenue, Mooresburg, Maine, 3733",
    "city": "Snelling",
    "state": "American Samoa"
  },
  {
    "postalCode": 3375097600,
    "address": "796 Bergen Court, Bainbridge, South Dakota, 5430",
    "city": "Kenmar",
    "state": "Wisconsin"
  },
  {
    "postalCode": 2463576441,
    "address": "369 Crooke Avenue, Makena, North Carolina, 8649",
    "city": "Corriganville",
    "state": "Wyoming"
  },
  {
    "postalCode": 5988943435,
    "address": "839 Perry Terrace, Bascom, Michigan, 9134",
    "city": "Verdi",
    "state": "New Hampshire"
  },
  {
    "postalCode": 5410072804,
    "address": "329 Church Avenue, Deputy, Utah, 423",
    "city": "Bancroft",
    "state": "Vermont"
  },
  {
    "postalCode": 3640892247,
    "address": "231 Covert Street, Glenville, Nebraska, 7420",
    "city": "Abiquiu",
    "state": "Virginia"
  },
  {
    "postalCode": 2375676617,
    "address": "602 Rutledge Street, Brookfield, Montana, 7124",
    "city": "Titanic",
    "state": "Texas"
  },
  {
    "postalCode": 2321928978,
    "address": "798 Orange Street, Oley, Oklahoma, 9997",
    "city": "Grahamtown",
    "state": "Puerto Rico"
  },
  {
    "postalCode": 5947758034,
    "address": "214 Harden Street, Tecolotito, Louisiana, 9441",
    "city": "Saddlebrooke",
    "state": "Mississippi"
  },
  {
    "postalCode": 5722349309,
    "address": "836 Holly Street, Caroleen, Nevada, 2247",
    "city": "Roy",
    "state": "Arizona"
  },
  {
    "postalCode": 1748477041,
    "address": "843 Jay Street, Wright, Rhode Island, 991",
    "city": "Elizaville",
    "state": "North Dakota"
  },
  {
    "postalCode": 1575949762,
    "address": "368 Durland Place, Cartwright, Ohio, 8642",
    "city": "Rockhill",
    "state": "Washington"
  },
  {
    "postalCode": 8375926882,
    "address": "282 Lott Place, Maybell, Minnesota, 3489",
    "city": "Osage",
    "state": "Alabama"
  },
  {
    "postalCode": 8172177933,
    "address": "934 Dorset Street, Hondah, New York, 3214",
    "city": "Clay",
    "state": "Maryland"
  },
  {
    "postalCode": 1833142874,
    "address": "391 Montgomery Place, Walker, Idaho, 7363",
    "city": "Kaka",
    "state": "Massachusetts"
  },
  {
    "postalCode": 4651824686,
    "address": "435 Richards Street, Waverly, Northern Mariana Islands, 8386",
    "city": "Selma",
    "state": "Colorado"
  },
  {
    "postalCode": 5330265827,
    "address": "509 Lake Street, Rew, Marshall Islands, 4621",
    "city": "Hegins",
    "state": "Connecticut"
  },
  {
    "postalCode": 5425052099,
    "address": "963 Malbone Street, Gerton, California, 9935",
    "city": "Juntura",
    "state": "Oregon"
  },
  {
    "postalCode": 8415797392,
    "address": "444 Whitty Lane, Sattley, Arkansas, 2234",
    "city": "Kraemer",
    "state": "New Jersey"
  },
  {
    "postalCode": 7673171270,
    "address": "234 Hill Street, Reinerton, Indiana, 9898",
    "city": "Valle",
    "state": "Federated States Of Micronesia"
  },
  {
    "postalCode": 2455647776,
    "address": "578 Kathleen Court, Leeper, Kentucky, 4343",
    "city": "Martinez",
    "state": "Florida"
  },
  {
    "postalCode": 5576690456,
    "address": "937 Coles Street, Salix, Missouri, 202",
    "city": "Hollymead",
    "state": "Hawaii"
  },
  {
    "postalCode": 5891111580,
    "address": "965 Milford Street, Lydia, District Of Columbia, 3652",
    "city": "Darlington",
    "state": "Georgia"
  },
  {
    "postalCode": 3536293142,
    "address": "308 Bedell Lane, Omar, Palau, 4212",
    "city": "Homeland",
    "state": "West Virginia"
  },
  {
    "postalCode": 8660800226,
    "address": "558 McDonald Avenue, Ellerslie, Pennsylvania, 6596",
    "city": "Konterra",
    "state": "New Mexico"
  },
  {
    "postalCode": 8512094220,
    "address": "305 Dahill Road, Cochranville, Alaska, 1054",
    "city": "Waukeenah",
    "state": "Tennessee"
  },
  {
    "postalCode": 7698143454,
    "address": "164 Lynch Street, Garnet, Iowa, 7958",
    "city": "Austinburg",
    "state": "South Carolina"
  },
  {
    "postalCode": 7306635558,
    "address": "812 Bassett Avenue, Tilden, Virgin Islands, 8650",
    "city": "Caledonia",
    "state": "Delaware"
  },
  {
    "postalCode": 8292112190,
    "address": "573 Seigel Court, Kansas, Guam, 5447",
    "city": "Townsend",
    "state": "Illinois"
  },
  {
    "postalCode": 6256538599,
    "address": "674 Legion Street, Dola, Maine, 3429",
    "city": "Caroline",
    "state": "American Samoa"
  },
  {
    "postalCode": 7564780234,
    "address": "745 Dobbin Street, Eureka, South Dakota, 9143",
    "city": "Defiance",
    "state": "Wisconsin"
  },
  {
    "postalCode": 3862690467,
    "address": "136 Newel Street, Drytown, North Carolina, 2675",
    "city": "Skyland",
    "state": "Wyoming"
  },
  {
    "postalCode": 6584976867,
    "address": "559 Myrtle Avenue, Ironton, Michigan, 6015",
    "city": "Turah",
    "state": "New Hampshire"
  },
  {
    "postalCode": 9420578798,
    "address": "825 Conduit Boulevard, Ivanhoe, Utah, 6706",
    "city": "Finzel",
    "state": "Vermont"
  },
  {
    "postalCode": 9581147926,
    "address": "153 Hinckley Place, Bagtown, Nebraska, 8752",
    "city": "Lowell",
    "state": "Virginia"
  },
  {
    "postalCode": 9613151700,
    "address": "581 Delmonico Place, Winfred, Montana, 8363",
    "city": "Bowie",
    "state": "Texas"
  },
  {
    "postalCode": 5780123452,
    "address": "220 Cypress Court, Coleville, Oklahoma, 6069",
    "city": "Somerset",
    "state": "Puerto Rico"
  },
  {
    "postalCode": 2799688480,
    "address": "195 Boulevard Court, Day, Louisiana, 1322",
    "city": "Loyalhanna",
    "state": "Mississippi"
  },
  {
    "postalCode": 8741799325,
    "address": "753 Lincoln Road, Whipholt, Nevada, 2969",
    "city": "Macdona",
    "state": "Arizona"
  },
  {
    "postalCode": 7415985822,
    "address": "667 Hancock Street, Strykersville, Rhode Island, 5362",
    "city": "Motley",
    "state": "North Dakota"
  },
  {
    "postalCode": 1444517907,
    "address": "111 Prospect Street, Gibsonia, Ohio, 9412",
    "city": "Websterville",
    "state": "Washington"
  },
  {
    "postalCode": 7119126181,
    "address": "374 Schaefer Street, Movico, Minnesota, 5585",
    "city": "Independence",
    "state": "Alabama"
  },
  {
    "postalCode": 1741882769,
    "address": "301 Gem Street, Basye, New York, 1401",
    "city": "Harrison",
    "state": "Maryland"
  },
  {
    "postalCode": 3821362749,
    "address": "316 Lafayette Avenue, Kennedyville, Idaho, 2644",
    "city": "Dodge",
    "state": "Massachusetts"
  },
  {
    "postalCode": 3794166979,
    "address": "732 Locust Street, Groton, Northern Mariana Islands, 6314",
    "city": "Nanafalia",
    "state": "Colorado"
  },
  {
    "postalCode": 4981614732,
    "address": "499 Waldorf Court, Bonanza, Marshall Islands, 3392",
    "city": "Echo",
    "state": "Connecticut"
  },
  {
    "postalCode": 3451283143,
    "address": "601 Hinsdale Street, Hayes, California, 1128",
    "city": "Savannah",
    "state": "Oregon"
  },
  {
    "postalCode": 4514421845,
    "address": "739 Manhattan Court, Hollins, Arkansas, 3085",
    "city": "Gasquet",
    "state": "New Jersey"
  },
  {
    "postalCode": 2197204064,
    "address": "265 Carlton Avenue, Fairfield, Indiana, 3681",
    "city": "Elrama",
    "state": "Federated States Of Micronesia"
  },
  {
    "postalCode": 4693654466,
    "address": "222 Jewel Street, Fidelis, Kentucky, 1004",
    "city": "Sutton",
    "state": "Florida"
  },
  {
    "postalCode": 7381325302,
    "address": "785 Bushwick Avenue, Alamo, Missouri, 2679",
    "city": "Bodega",
    "state": "Hawaii"
  },
  {
    "postalCode": 7763885126,
    "address": "998 Bethel Loop, Germanton, District Of Columbia, 4685",
    "city": "Westwood",
    "state": "Georgia"
  },
  {
    "postalCode": 6876855624,
    "address": "284 Navy Walk, Churchill, Palau, 1646",
    "city": "Escondida",
    "state": "West Virginia"
  },
  {
    "postalCode": 8446221617,
    "address": "859 Rutherford Place, Babb, Pennsylvania, 6871",
    "city": "Ypsilanti",
    "state": "New Mexico"
  },
  {
    "postalCode": 4346862543,
    "address": "655 Coyle Street, Wells, Alaska, 688",
    "city": "Wilsonia",
    "state": "Tennessee"
  },
  {
    "postalCode": 8965733254,
    "address": "928 Flatbush Avenue, Vincent, Iowa, 727",
    "city": "Gratton",
    "state": "South Carolina"
  },
  {
    "postalCode": 9053328961,
    "address": "975 Onderdonk Avenue, Masthope, Virgin Islands, 884",
    "city": "Kapowsin",
    "state": "Delaware"
  },
  {
    "postalCode": 6084567588,
    "address": "403 Devoe Street, Hiko, Guam, 945",
    "city": "Hobucken",
    "state": "Illinois"
  },
  {
    "postalCode": 7288301199,
    "address": "983 Lincoln Place, Harrodsburg, Maine, 2270",
    "city": "Urie",
    "state": "American Samoa"
  },
  {
    "postalCode": 3945556824,
    "address": "645 Irving Street, Weeksville, South Dakota, 1643",
    "city": "Knowlton",
    "state": "Wisconsin"
  },
  {
    "postalCode": 2471547241,
    "address": "684 Oxford Street, Avoca, North Carolina, 8796",
    "city": "Callaghan",
    "state": "Wyoming"
  },
  {
    "postalCode": 7745473624,
    "address": "587 Pershing Loop, Rosine, Michigan, 3064",
    "city": "Moquino",
    "state": "New Hampshire"
  },
  {
    "postalCode": 5665934107,
    "address": "272 Hornell Loop, Marienthal, Utah, 1002",
    "city": "Cliffside",
    "state": "Vermont"
  },
  {
    "postalCode": 6177065867,
    "address": "573 Knapp Street, Maury, Nebraska, 3070",
    "city": "Nelson",
    "state": "Virginia"
  },
  {
    "postalCode": 8308826043,
    "address": "346 Langham Street, Frizzleburg, Montana, 9682",
    "city": "Chamberino",
    "state": "Texas"
  },
  {
    "postalCode": 8396587769,
    "address": "246 Graham Avenue, Steinhatchee, Oklahoma, 3116",
    "city": "Durham",
    "state": "Puerto Rico"
  },
  {
    "postalCode": 9566947717,
    "address": "508 Story Court, Lawrence, Louisiana, 9059",
    "city": "Centerville",
    "state": "Mississippi"
  },
  {
    "postalCode": 9917201391,
    "address": "210 Bouck Court, Breinigsville, Nevada, 857",
    "city": "Ripley",
    "state": "Arizona"
  },
  {
    "postalCode": 5408831138,
    "address": "725 Norwood Avenue, Hickory, Rhode Island, 8603",
    "city": "Blandburg",
    "state": "North Dakota"
  },
  {
    "postalCode": 6353630476,
    "address": "993 Poplar Street, Brambleton, Ohio, 767",
    "city": "Ernstville",
    "state": "Washington"
  },
  {
    "postalCode": 9930462385,
    "address": "227 Oak Street, Florence, Minnesota, 2351",
    "city": "Cuylerville",
    "state": "Alabama"
  },
  {
    "postalCode": 7809541352,
    "address": "791 Thames Street, Williamson, New York, 6135",
    "city": "Cecilia",
    "state": "Maryland"
  },
  {
    "postalCode": 7460351447,
    "address": "413 Tech Place, Watchtower, Idaho, 5635",
    "city": "Roeville",
    "state": "Massachusetts"
  },
  {
    "postalCode": 3039537939,
    "address": "555 Garden Street, Veguita, Northern Mariana Islands, 8475",
    "city": "Kanauga",
    "state": "Colorado"
  },
  {
    "postalCode": 9882794111,
    "address": "795 Terrace Place, Brogan, Marshall Islands, 9661",
    "city": "Nutrioso",
    "state": "Connecticut"
  },
  {
    "postalCode": 3112614995,
    "address": "416 Throop Avenue, Croom, California, 676",
    "city": "Bend",
    "state": "Oregon"
  },
  {
    "postalCode": 5675835808,
    "address": "676 Poplar Avenue, Rowe, Arkansas, 1171",
    "city": "Edneyville",
    "state": "New Jersey"
  },
  {
    "postalCode": 7054761330,
    "address": "450 Fiske Place, Aguila, Indiana, 355",
    "city": "Cucumber",
    "state": "Federated States Of Micronesia"
  },
  {
    "postalCode": 1652901349,
    "address": "926 Matthews Place, Columbus, Kentucky, 9371",
    "city": "Shepardsville",
    "state": "Florida"
  },
  {
    "postalCode": 3041549470,
    "address": "830 Miller Avenue, Genoa, Missouri, 1443",
    "city": "Sisquoc",
    "state": "Hawaii"
  },
  {
    "postalCode": 4463332020,
    "address": "778 McClancy Place, Maxville, District Of Columbia, 4286",
    "city": "Kersey",
    "state": "Georgia"
  },
  {
    "postalCode": 6577060693,
    "address": "351 Chapel Street, Chase, Palau, 5971",
    "city": "Topaz",
    "state": "West Virginia"
  },
  {
    "postalCode": 2762763761,
    "address": "559 Manor Court, Floriston, Pennsylvania, 6209",
    "city": "Lowgap",
    "state": "New Mexico"
  },
  {
    "postalCode": 4477119973,
    "address": "912 Hamilton Walk, Ona, Alaska, 8180",
    "city": "Jennings",
    "state": "Tennessee"
  },
  {
    "postalCode": 5095972771,
    "address": "583 Hillel Place, Thermal, Iowa, 1729",
    "city": "Hebron",
    "state": "South Carolina"
  },
  {
    "postalCode": 9817022056,
    "address": "846 Judge Street, Gwynn, Virgin Islands, 3126",
    "city": "Neibert",
    "state": "Delaware"
  },
  {
    "postalCode": 9820580353,
    "address": "272 Noll Street, Irwin, Guam, 1129",
    "city": "Worton",
    "state": "Illinois"
  },
  {
    "postalCode": 7336658474,
    "address": "767 Belvidere Street, Bergoo, Maine, 6817",
    "city": "Garberville",
    "state": "American Samoa"
  },
  {
    "postalCode": 6732487883,
    "address": "318 Butler Place, Yonah, South Dakota, 1072",
    "city": "Allensworth",
    "state": "Wisconsin"
  },
  {
    "postalCode": 3527057843,
    "address": "864 Broome Street, Madaket, North Carolina, 200",
    "city": "Gracey",
    "state": "Wyoming"
  },
  {
    "postalCode": 1436786463,
    "address": "919 Fleet Street, Lavalette, Michigan, 9212",
    "city": "Deercroft",
    "state": "New Hampshire"
  },
  {
    "postalCode": 1669349750,
    "address": "794 Boardwalk , Munjor, Utah, 7704",
    "city": "Fairacres",
    "state": "Vermont"
  },
  {
    "postalCode": 1172423896,
    "address": "359 Cyrus Avenue, Whitewater, Nebraska, 217",
    "city": "Kempton",
    "state": "Virginia"
  },
  {
    "postalCode": 3511467045,
    "address": "224 Turnbull Avenue, Chesapeake, Montana, 2371",
    "city": "Efland",
    "state": "Texas"
  },
  {
    "postalCode": 7495838462,
    "address": "631 Conklin Avenue, Fairhaven, Oklahoma, 7247",
    "city": "Talpa",
    "state": "Puerto Rico"
  },
  {
    "postalCode": 8509579743,
    "address": "111 Woodside Avenue, Nadine, Louisiana, 8658",
    "city": "Tetherow",
    "state": "Mississippi"
  },
  {
    "postalCode": 9769828747,
    "address": "598 Moultrie Street, Conestoga, Nevada, 7206",
    "city": "Richville",
    "state": "Arizona"
  },
  {
    "postalCode": 8894289296,
    "address": "542 Stewart Street, Veyo, Rhode Island, 1384",
    "city": "Shindler",
    "state": "North Dakota"
  },
  {
    "postalCode": 3459612658,
    "address": "355 Navy Street, Coinjock, Ohio, 5371",
    "city": "Darbydale",
    "state": "Washington"
  },
  {
    "postalCode": 4089702588,
    "address": "320 Berry Street, Ventress, Minnesota, 3792",
    "city": "Sheatown",
    "state": "Alabama"
  },
  {
    "postalCode": 3914783470,
    "address": "977 Seagate Terrace, Malott, New York, 9468",
    "city": "Twilight",
    "state": "Maryland"
  },
  {
    "postalCode": 6483162314,
    "address": "917 Cambridge Place, Kohatk, Idaho, 3323",
    "city": "Biehle",
    "state": "Massachusetts"
  },
  {
    "postalCode": 7167653067,
    "address": "676 Madison Place, Grapeview, Northern Mariana Islands, 3977",
    "city": "Limestone",
    "state": "Colorado"
  },
  {
    "postalCode": 4951504242,
    "address": "824 Tudor Terrace, Connerton, Marshall Islands, 912",
    "city": "Kerby",
    "state": "Connecticut"
  },
  {
    "postalCode": 7963294048,
    "address": "950 Jackson Court, Crumpler, California, 2908",
    "city": "Singer",
    "state": "Oregon"
  },
  {
    "postalCode": 5906239828,
    "address": "879 Church Lane, Wauhillau, Arkansas, 7345",
    "city": "Stouchsburg",
    "state": "New Jersey"
  },
  {
    "postalCode": 3543140759,
    "address": "141 Delevan Street, Vivian, Indiana, 3331",
    "city": "Fairview",
    "state": "Federated States Of Micronesia"
  },
  {
    "postalCode": 8528347602,
    "address": "851 Lincoln Terrace, Kirk, Kentucky, 5477",
    "city": "Garfield",
    "state": "Florida"
  },
  {
    "postalCode": 1209197955,
    "address": "689 Crescent Street, Riner, Missouri, 7288",
    "city": "Greer",
    "state": "Hawaii"
  },
  {
    "postalCode": 2669587874,
    "address": "279 Woodbine Street, Loveland, District Of Columbia, 3911",
    "city": "Manitou",
    "state": "Georgia"
  },
  {
    "postalCode": 2690792601,
    "address": "942 Imlay Street, Teasdale, Palau, 9962",
    "city": "Crenshaw",
    "state": "West Virginia"
  },
  {
    "postalCode": 5595398547,
    "address": "567 Meserole Avenue, Barrelville, Pennsylvania, 6047",
    "city": "Cotopaxi",
    "state": "New Mexico"
  },
  {
    "postalCode": 9904373884,
    "address": "619 Schenck Street, Kylertown, Alaska, 9116",
    "city": "Forestburg",
    "state": "Tennessee"
  },
  {
    "postalCode": 1169225355,
    "address": "292 Crown Street, Slovan, Iowa, 6063",
    "city": "Oretta",
    "state": "South Carolina"
  },
  {
    "postalCode": 3978332935,
    "address": "754 Elmwood Avenue, Cataract, Virgin Islands, 9763",
    "city": "Dunlo",
    "state": "Delaware"
  },
  {
    "postalCode": 1657495814,
    "address": "253 Louisiana Avenue, Grazierville, Guam, 5915",
    "city": "Sterling",
    "state": "Illinois"
  },
  {
    "postalCode": 4936788163,
    "address": "501 Bradford Street, Barronett, Maine, 6584",
    "city": "Crawfordsville",
    "state": "American Samoa"
  },
  {
    "postalCode": 2767149583,
    "address": "108 Krier Place, Wadsworth, South Dakota, 5025",
    "city": "Kilbourne",
    "state": "Wisconsin"
  },
  {
    "postalCode": 3247740269,
    "address": "201 Oliver Street, Bladensburg, North Carolina, 3567",
    "city": "Robbins",
    "state": "Wyoming"
  },
  {
    "postalCode": 4044107931,
    "address": "954 Hart Place, Olney, Michigan, 7962",
    "city": "Ladera",
    "state": "New Hampshire"
  },
  {
    "postalCode": 5818688869,
    "address": "956 Scott Avenue, Brazos, Utah, 2745",
    "city": "Sims",
    "state": "Vermont"
  },
  {
    "postalCode": 1151471365,
    "address": "846 Montana Place, Bedias, Nebraska, 4628",
    "city": "Dalton",
    "state": "Virginia"
  },
  {
    "postalCode": 1351967551,
    "address": "392 Degraw Street, Valmy, Montana, 1189",
    "city": "Convent",
    "state": "Texas"
  },
  {
    "postalCode": 3276219306,
    "address": "862 Wortman Avenue, Ola, Oklahoma, 5893",
    "city": "Vicksburg",
    "state": "Puerto Rico"
  },
  {
    "postalCode": 4996587049,
    "address": "199 Henderson Walk, Clara, Louisiana, 309",
    "city": "Dubois",
    "state": "Mississippi"
  },
  {
    "postalCode": 9553254354,
    "address": "470 Manhattan Avenue, Belleview, Nevada, 4466",
    "city": "Sandston",
    "state": "Arizona"
  },
  {
    "postalCode": 2084879368,
    "address": "303 Croton Loop, Conway, Rhode Island, 3117",
    "city": "Orovada",
    "state": "North Dakota"
  },
  {
    "postalCode": 8200925968,
    "address": "923 Joralemon Street, Ryderwood, Ohio, 4874",
    "city": "Carlos",
    "state": "Washington"
  },
  {
    "postalCode": 3083959858,
    "address": "988 Norman Avenue, Mayfair, Minnesota, 2992",
    "city": "Aberdeen",
    "state": "Alabama"
  },
  {
    "postalCode": 6609444254,
    "address": "792 Ovington Court, Edgar, New York, 5479",
    "city": "Odessa",
    "state": "Maryland"
  },
  {
    "postalCode": 7202034929,
    "address": "987 Belmont Avenue, Holcombe, Idaho, 8572",
    "city": "Enlow",
    "state": "Massachusetts"
  },
  {
    "postalCode": 5725427880,
    "address": "594 Stoddard Place, Sussex, Northern Mariana Islands, 8671",
    "city": "Utting",
    "state": "Colorado"
  },
  {
    "postalCode": 8067287443,
    "address": "346 Aviation Road, Yogaville, Marshall Islands, 4668",
    "city": "Sultana",
    "state": "Connecticut"
  },
  {
    "postalCode": 2543816141,
    "address": "358 Visitation Place, Lewis, California, 8391",
    "city": "Belmont",
    "state": "Oregon"
  },
  {
    "postalCode": 3041509690,
    "address": "238 Rose Street, Rodman, Arkansas, 8001",
    "city": "Wakulla",
    "state": "New Jersey"
  },
  {
    "postalCode": 3790832782,
    "address": "232 Leonora Court, Gerber, Indiana, 8517",
    "city": "Hall",
    "state": "Federated States Of Micronesia"
  },
  {
    "postalCode": 2314516564,
    "address": "420 Bryant Street, Spokane, Kentucky, 7336",
    "city": "Noxen",
    "state": "Florida"
  },
  {
    "postalCode": 8341453539,
    "address": "501 Greene Avenue, Floris, Missouri, 1993",
    "city": "Hilltop",
    "state": "Hawaii"
  },
  {
    "postalCode": 9446577176,
    "address": "757 Schenck Place, Witmer, District Of Columbia, 9658",
    "city": "Fredericktown",
    "state": "Georgia"
  },
  {
    "postalCode": 7603701448,
    "address": "254 Monaco Place, Alderpoint, Palau, 1275",
    "city": "Chumuckla",
    "state": "West Virginia"
  },
  {
    "postalCode": 2218336261,
    "address": "795 Stratford Road, Bordelonville, Pennsylvania, 1917",
    "city": "Retsof",
    "state": "New Mexico"
  },
  {
    "postalCode": 6596812634,
    "address": "494 Howard Avenue, Grandview, Alaska, 1962",
    "city": "Kipp",
    "state": "Tennessee"
  },
  {
    "postalCode": 4487573973,
    "address": "658 Vandalia Avenue, Camino, Iowa, 4315",
    "city": "Sena",
    "state": "South Carolina"
  },
  {
    "postalCode": 5231129880,
    "address": "760 Ralph Avenue, Tolu, Virgin Islands, 7851",
    "city": "Sardis",
    "state": "Delaware"
  },
  {
    "postalCode": 3621052883,
    "address": "820 President Street, Oneida, Guam, 1851",
    "city": "Jessie",
    "state": "Illinois"
  },
  {
    "postalCode": 4124264946,
    "address": "761 Caton Avenue, Manchester, Maine, 3440",
    "city": "Harold",
    "state": "American Samoa"
  },
  {
    "postalCode": 2171656244,
    "address": "211 Hooper Street, Reno, South Dakota, 9521",
    "city": "Linwood",
    "state": "Wisconsin"
  },
  {
    "postalCode": 7899303631,
    "address": "781 Gilmore Court, Sparkill, North Carolina, 5904",
    "city": "Johnsonburg",
    "state": "Wyoming"
  },
  {
    "postalCode": 9041174467,
    "address": "865 Claver Place, Lorraine, Michigan, 9946",
    "city": "Allison",
    "state": "New Hampshire"
  },
  {
    "postalCode": 3683306828,
    "address": "270 College Place, Hanover, Utah, 7519",
    "city": "Buxton",
    "state": "Vermont"
  },
  {
    "postalCode": 1148223406,
    "address": "722 Meeker Avenue, Swartzville, Nebraska, 9520",
    "city": "Carbonville",
    "state": "Virginia"
  },
  {
    "postalCode": 7841038717,
    "address": "310 Cooke Court, Lithium, Montana, 9818",
    "city": "Dunbar",
    "state": "Texas"
  },
  {
    "postalCode": 2533618011,
    "address": "662 Coffey Street, Noblestown, Oklahoma, 4832",
    "city": "Gilgo",
    "state": "Puerto Rico"
  },
  {
    "postalCode": 6151030281,
    "address": "226 Kossuth Place, Castleton, Louisiana, 499",
    "city": "Idledale",
    "state": "Mississippi"
  },
  {
    "postalCode": 7006404136,
    "address": "780 Rock Street, Draper, Nevada, 7707",
    "city": "Rivereno",
    "state": "Arizona"
  },
  {
    "postalCode": 2038041351,
    "address": "237 Strauss Street, Nile, Rhode Island, 8560",
    "city": "Dargan",
    "state": "North Dakota"
  },
  {
    "postalCode": 6867888074,
    "address": "937 Herbert Street, Harmon, Ohio, 151",
    "city": "Roberts",
    "state": "Washington"
  },
  {
    "postalCode": 3510340230,
    "address": "424 Ferry Place, Shasta, Minnesota, 5076",
    "city": "Allendale",
    "state": "Alabama"
  },
  {
    "postalCode": 4139500242,
    "address": "584 Java Street, Westmoreland, New York, 1936",
    "city": "Watrous",
    "state": "Maryland"
  },
  {
    "postalCode": 7561806702,
    "address": "923 Dekoven Court, Herbster, Idaho, 8320",
    "city": "Esmont",
    "state": "Massachusetts"
  },
  {
    "postalCode": 4875580812,
    "address": "859 Hampton Place, Dyckesville, Northern Mariana Islands, 4544",
    "city": "Loretto",
    "state": "Colorado"
  },
  {
    "postalCode": 4911529137,
    "address": "145 Newton Street, Cetronia, Marshall Islands, 4486",
    "city": "Sidman",
    "state": "Connecticut"
  },
  {
    "postalCode": 1946787724,
    "address": "202 Essex Street, Kidder, California, 371",
    "city": "Brule",
    "state": "Oregon"
  },
  {
    "postalCode": 8011097231,
    "address": "163 Greenpoint Avenue, Chaparrito, Arkansas, 9424",
    "city": "Yardville",
    "state": "New Jersey"
  },
  {
    "postalCode": 6779732454,
    "address": "954 Cortelyou Road, Haena, Indiana, 9998",
    "city": "Blanford",
    "state": "Federated States Of Micronesia"
  },
  {
    "postalCode": 5442571045,
    "address": "408 Jackson Street, Needmore, Kentucky, 8363",
    "city": "Onton",
    "state": "Florida"
  },
  {
    "postalCode": 7807139567,
    "address": "855 Troy Avenue, Grayhawk, Missouri, 7581",
    "city": "Brecon",
    "state": "Hawaii"
  },
  {
    "postalCode": 8370081345,
    "address": "110 Brevoort Place, Tyhee, District Of Columbia, 1296",
    "city": "Orviston",
    "state": "Georgia"
  },
  {
    "postalCode": 7892974082,
    "address": "117 Eldert Lane, Matheny, Palau, 8501",
    "city": "Tampico",
    "state": "West Virginia"
  },
  {
    "postalCode": 1694782893,
    "address": "334 Irving Place, Newry, Pennsylvania, 4866",
    "city": "Wikieup",
    "state": "New Mexico"
  },
  {
    "postalCode": 8202341884,
    "address": "843 Hendrickson Street, Hamilton, Alaska, 1702",
    "city": "Wolcott",
    "state": "Tennessee"
  },
  {
    "postalCode": 3324725652,
    "address": "519 Haring Street, Stockdale, Iowa, 8102",
    "city": "Volta",
    "state": "South Carolina"
  },
  {
    "postalCode": 3204504143,
    "address": "779 Robert Street, Aurora, Virgin Islands, 5514",
    "city": "Kent",
    "state": "Delaware"
  },
  {
    "postalCode": 6969185827,
    "address": "531 Clymer Street, Sunwest, Guam, 9148",
    "city": "Shawmut",
    "state": "Illinois"
  },
  {
    "postalCode": 2761005546,
    "address": "228 Tiffany Place, Felt, Maine, 7386",
    "city": "Baker",
    "state": "American Samoa"
  },
  {
    "postalCode": 6583100446,
    "address": "181 Irwin Street, Hemlock, South Dakota, 7100",
    "city": "Goochland",
    "state": "Wisconsin"
  },
  {
    "postalCode": 8501324616,
    "address": "741 Forrest Street, Stevens, North Carolina, 8208",
    "city": "Brooktrails",
    "state": "Wyoming"
  },
  {
    "postalCode": 8585931660,
    "address": "802 Union Avenue, Camas, Michigan, 4746",
    "city": "Rose",
    "state": "New Hampshire"
  },
  {
    "postalCode": 1443287225,
    "address": "887 Prospect Place, Lutsen, Utah, 3480",
    "city": "Dupuyer",
    "state": "Vermont"
  },
  {
    "postalCode": 1439638924,
    "address": "533 Euclid Avenue, Forbestown, Nebraska, 1217",
    "city": "Jacumba",
    "state": "Virginia"
  },
  {
    "postalCode": 7967993033,
    "address": "453 Lancaster Avenue, Cowiche, Montana, 4086",
    "city": "Lisco",
    "state": "Texas"
  },
  {
    "postalCode": 4220176646,
    "address": "472 Dunham Place, Axis, Oklahoma, 1044",
    "city": "Craig",
    "state": "Puerto Rico"
  },
  {
    "postalCode": 7738303936,
    "address": "991 Dekalb Avenue, Foscoe, Louisiana, 596",
    "city": "Calvary",
    "state": "Mississippi"
  },
  {
    "postalCode": 2205133366,
    "address": "163 Micieli Place, Zeba, Nevada, 7975",
    "city": "Weogufka",
    "state": "Arizona"
  },
  {
    "postalCode": 3712760687,
    "address": "880 Will Place, Rockbridge, Rhode Island, 7723",
    "city": "Idamay",
    "state": "North Dakota"
  },
  {
    "postalCode": 3844929098,
    "address": "204 Richardson Street, Layhill, Ohio, 6876",
    "city": "Berwind",
    "state": "Washington"
  },
  {
    "postalCode": 6714238142,
    "address": "133 Dearborn Court, Bowmansville, Minnesota, 8781",
    "city": "Dahlen",
    "state": "Alabama"
  },
  {
    "postalCode": 4082487674,
    "address": "882 Florence Avenue, Cedarville, New York, 6700",
    "city": "Mulino",
    "state": "Maryland"
  },
  {
    "postalCode": 9032466213,
    "address": "332 Varet Street, Boonville, Idaho, 5046",
    "city": "Fruitdale",
    "state": "Massachusetts"
  },
  {
    "postalCode": 4478120129,
    "address": "119 Newkirk Placez, Goodville, Northern Mariana Islands, 3837",
    "city": "Joppa",
    "state": "Colorado"
  },
  {
    "postalCode": 9336579151,
    "address": "380 Lyme Avenue, Southmont, Marshall Islands, 6082",
    "city": "Wilmington",
    "state": "Connecticut"
  },
  {
    "postalCode": 4695981022,
    "address": "122 Furman Street, Marysville, California, 456",
    "city": "Freetown",
    "state": "Oregon"
  },
  {
    "postalCode": 3333771292,
    "address": "572 Franklin Street, Drummond, Arkansas, 6671",
    "city": "Sedley",
    "state": "New Jersey"
  },
  {
    "postalCode": 2157925704,
    "address": "975 Halleck Street, Beason, Indiana, 7870",
    "city": "Chesterfield",
    "state": "Federated States Of Micronesia"
  },
  {
    "postalCode": 1902049542,
    "address": "468 Campus Place, Wacissa, Kentucky, 6860",
    "city": "Shrewsbury",
    "state": "Florida"
  },
  {
    "postalCode": 9034332840,
    "address": "305 Bay Street, Eastmont, Missouri, 7889",
    "city": "Woodlake",
    "state": "Hawaii"
  },
  {
    "postalCode": 6868766508,
    "address": "430 Wakeman Place, Salvo, District Of Columbia, 2863",
    "city": "Rockingham",
    "state": "Georgia"
  },
  {
    "postalCode": 3190209209,
    "address": "129 Boerum Place, Abrams, Palau, 479",
    "city": "Oceola",
    "state": "West Virginia"
  },
  {
    "postalCode": 1925029849,
    "address": "455 Keen Court, Brandermill, Pennsylvania, 6153",
    "city": "Calpine",
    "state": "New Mexico"
  },
  {
    "postalCode": 7945468944,
    "address": "284 Autumn Avenue, Orason, Alaska, 4253",
    "city": "Bawcomville",
    "state": "Tennessee"
  },
  {
    "postalCode": 9625981293,
    "address": "770 Miller Place, Vienna, Iowa, 2849",
    "city": "Harborton",
    "state": "South Carolina"
  },
  {
    "postalCode": 9967834712,
    "address": "959 Ditmas Avenue, Cavalero, Virgin Islands, 7052",
    "city": "Campo",
    "state": "Delaware"
  },
  {
    "postalCode": 4439684650,
    "address": "944 Post Court, Sylvanite, Guam, 7347",
    "city": "Highland",
    "state": "Illinois"
  },
  {
    "postalCode": 8685763217,
    "address": "874 Clifton Place, Bennett, Maine, 3698",
    "city": "Waterview",
    "state": "American Samoa"
  },
  {
    "postalCode": 3978722844,
    "address": "555 Grimes Road, Montura, South Dakota, 4980",
    "city": "Bellfountain",
    "state": "Wisconsin"
  },
  {
    "postalCode": 1501057895,
    "address": "821 Metrotech Courtr, Bynum, North Carolina, 1791",
    "city": "Norvelt",
    "state": "Wyoming"
  },
  {
    "postalCode": 4320234436,
    "address": "492 Sackman Street, Otranto, Michigan, 7505",
    "city": "Northridge",
    "state": "New Hampshire"
  },
  {
    "postalCode": 8742671590,
    "address": "219 Jamaica Avenue, Lodoga, Utah, 3461",
    "city": "Sunriver",
    "state": "Vermont"
  },
  {
    "postalCode": 2461845949,
    "address": "257 Hoyt Street, Muir, Nebraska, 8633",
    "city": "Libertytown",
    "state": "Virginia"
  },
  {
    "postalCode": 7586468897,
    "address": "773 Grove Street, Jacksonburg, Montana, 1057",
    "city": "Brenton",
    "state": "Texas"
  },
  {
    "postalCode": 9558256286,
    "address": "454 Mersereau Court, Alfarata, Oklahoma, 8949",
    "city": "Duryea",
    "state": "Puerto Rico"
  },
  {
    "postalCode": 7151315667,
    "address": "890 Wilson Avenue, Glenshaw, Louisiana, 4603",
    "city": "Kieler",
    "state": "Mississippi"
  },
  {
    "postalCode": 4212813699,
    "address": "931 Clay Street, Beaulieu, Nevada, 254",
    "city": "Richmond",
    "state": "Arizona"
  },
  {
    "postalCode": 7661195678,
    "address": "775 Friel Place, Turpin, Rhode Island, 1528",
    "city": "Innsbrook",
    "state": "North Dakota"
  },
  {
    "postalCode": 3643373565,
    "address": "289 Ocean Court, Jardine, Ohio, 6027",
    "city": "Hiwasse",
    "state": "Washington"
  },
  {
    "postalCode": 4321883457,
    "address": "745 Heath Place, Devon, Minnesota, 3835",
    "city": "Sexton",
    "state": "Alabama"
  },
  {
    "postalCode": 8197148753,
    "address": "874 Pilling Street, Bayview, New York, 6855",
    "city": "Sanford",
    "state": "Maryland"
  },
  {
    "postalCode": 3435118133,
    "address": "473 Brightwater Avenue, Ferney, Idaho, 8297",
    "city": "Springdale",
    "state": "Massachusetts"
  },
  {
    "postalCode": 7184480127,
    "address": "674 Engert Avenue, Klagetoh, Northern Mariana Islands, 6794",
    "city": "Frystown",
    "state": "Colorado"
  },
  {
    "postalCode": 2868270066,
    "address": "364 Aitken Place, Chamizal, Marshall Islands, 3529",
    "city": "Deltaville",
    "state": "Connecticut"
  },
  {
    "postalCode": 5454638196,
    "address": "419 Knight Court, Hachita, California, 2548",
    "city": "Mulberry",
    "state": "Oregon"
  },
  {
    "postalCode": 3706812524,
    "address": "260 Ebony Court, Ribera, Arkansas, 9763",
    "city": "Courtland",
    "state": "New Jersey"
  },
  {
    "postalCode": 1241046950,
    "address": "580 Harbor Court, Fedora, Indiana, 3591",
    "city": "Collins",
    "state": "Federated States Of Micronesia"
  },
  {
    "postalCode": 4794853763,
    "address": "608 Bills Place, Cade, Kentucky, 745",
    "city": "Bakersville",
    "state": "Florida"
  },
  {
    "postalCode": 3115017917,
    "address": "371 Waldane Court, Greensburg, Missouri, 9681",
    "city": "Grantville",
    "state": "Hawaii"
  },
  {
    "postalCode": 7867812876,
    "address": "689 Verona Place, Iola, District Of Columbia, 8591",
    "city": "Mansfield",
    "state": "Georgia"
  },
  {
    "postalCode": 5865957425,
    "address": "881 Jackson Place, Hasty, Palau, 4145",
    "city": "Wiscon",
    "state": "West Virginia"
  },
  {
    "postalCode": 8481315384,
    "address": "859 Kingsland Avenue, Welch, Pennsylvania, 209",
    "city": "Eagletown",
    "state": "New Mexico"
  },
  {
    "postalCode": 8902006369,
    "address": "774 Franklin Avenue, Coaldale, Alaska, 6060",
    "city": "Wattsville",
    "state": "Tennessee"
  },
  {
    "postalCode": 5460714071,
    "address": "375 Roebling Street, Murillo, Iowa, 8669",
    "city": "Biddle",
    "state": "South Carolina"
  },
  {
    "postalCode": 3437427750,
    "address": "593 Village Court, Wyoming, Virgin Islands, 5430",
    "city": "Tuskahoma",
    "state": "Delaware"
  },
  {
    "postalCode": 7645259141,
    "address": "816 Herkimer Court, Dixonville, Guam, 4052",
    "city": "Warsaw",
    "state": "Illinois"
  },
  {
    "postalCode": 8711180651,
    "address": "248 Woodhull Street, Cressey, Maine, 5252",
    "city": "Darrtown",
    "state": "American Samoa"
  },
  {
    "postalCode": 4462975197,
    "address": "313 Merit Court, Gila, South Dakota, 6096",
    "city": "Freelandville",
    "state": "Wisconsin"
  },
  {
    "postalCode": 4571206588,
    "address": "345 Lloyd Court, Helen, North Carolina, 4562",
    "city": "Smeltertown",
    "state": "Wyoming"
  },
  {
    "postalCode": 4153554047,
    "address": "278 Classon Avenue, Brady, Michigan, 4415",
    "city": "Tuttle",
    "state": "New Hampshire"
  },
  {
    "postalCode": 2209551344,
    "address": "909 Cedar Street, Fontanelle, Utah, 6610",
    "city": "Cannondale",
    "state": "Vermont"
  },
  {
    "postalCode": 7645591043,
    "address": "341 Hope Street, Chautauqua, Nebraska, 7339",
    "city": "Urbana",
    "state": "Virginia"
  },
  {
    "postalCode": 5708234028,
    "address": "555 Eastern Parkway, Gardiner, Montana, 7648",
    "city": "Galesville",
    "state": "Texas"
  },
  {
    "postalCode": 8630843273,
    "address": "289 Lacon Court, Blairstown, Oklahoma, 7694",
    "city": "Rodanthe",
    "state": "Puerto Rico"
  },
  {
    "postalCode": 8475878129,
    "address": "182 Troutman Street, Lemoyne, Louisiana, 574",
    "city": "Rivers",
    "state": "Mississippi"
  },
  {
    "postalCode": 3301820907,
    "address": "674 Murdock Court, Summertown, Nevada, 2306",
    "city": "Hiseville",
    "state": "Arizona"
  },
  {
    "postalCode": 8810870149,
    "address": "856 Oceanview Avenue, Bendon, Rhode Island, 7147",
    "city": "Canby",
    "state": "North Dakota"
  },
  {
    "postalCode": 3928739959,
    "address": "460 Stillwell Place, Cumberland, Ohio, 594",
    "city": "Boomer",
    "state": "Washington"
  },
  {
    "postalCode": 9281724828,
    "address": "873 Melba Court, Coultervillle, Minnesota, 1185",
    "city": "Nicholson",
    "state": "Alabama"
  },
  {
    "postalCode": 4130536809,
    "address": "280 Seton Place, Caron, New York, 8054",
    "city": "Delwood",
    "state": "Maryland"
  },
  {
    "postalCode": 9811675831,
    "address": "821 Vanderveer Place, Imperial, Idaho, 3127",
    "city": "Allentown",
    "state": "Massachusetts"
  },
  {
    "postalCode": 7521007572,
    "address": "296 Jerome Street, Sunbury, Northern Mariana Islands, 5059",
    "city": "Levant",
    "state": "Colorado"
  },
  {
    "postalCode": 8066870899,
    "address": "133 Beverly Road, Summerfield, Marshall Islands, 5683",
    "city": "Succasunna",
    "state": "Connecticut"
  },
  {
    "postalCode": 9053574127,
    "address": "414 Elm Place, Fowlerville, California, 8087",
    "city": "Cawood",
    "state": "Oregon"
  },
  {
    "postalCode": 6142243311,
    "address": "562 Applegate Court, Nord, Arkansas, 9634",
    "city": "Gorham",
    "state": "New Jersey"
  },
  {
    "postalCode": 9049976739,
    "address": "259 Ingraham Street, Delco, Indiana, 1265",
    "city": "Albrightsville",
    "state": "Federated States Of Micronesia"
  },
  {
    "postalCode": 1762130665,
    "address": "454 Kensington Street, Edinburg, Kentucky, 9771",
    "city": "Lupton",
    "state": "Florida"
  },
  {
    "postalCode": 1479931491,
    "address": "803 Court Street, Cutter, Missouri, 7241",
    "city": "Tonopah",
    "state": "Hawaii"
  },
  {
    "postalCode": 6378403666,
    "address": "831 Cropsey Avenue, Thynedale, District Of Columbia, 8886",
    "city": "Greenbackville",
    "state": "Georgia"
  },
  {
    "postalCode": 5761494863,
    "address": "514 Madoc Avenue, Glasgow, Palau, 2561",
    "city": "Chelsea",
    "state": "West Virginia"
  },
  {
    "postalCode": 5254124787,
    "address": "264 Newkirk Avenue, Caln, Pennsylvania, 7220",
    "city": "Kenvil",
    "state": "New Mexico"
  },
  {
    "postalCode": 4858576445,
    "address": "732 Stryker Street, Cornucopia, Alaska, 8277",
    "city": "Lynn",
    "state": "Tennessee"
  },
  {
    "postalCode": 4520856020,
    "address": "551 Hendrickson Place, Belvoir, Iowa, 1791",
    "city": "Downsville",
    "state": "South Carolina"
  },
  {
    "postalCode": 3221630085,
    "address": "956 Pacific Street, Eden, Virgin Islands, 6460",
    "city": "Graniteville",
    "state": "Delaware"
  },
  {
    "postalCode": 2195928663,
    "address": "372 Erskine Loop, Thatcher, Guam, 3272",
    "city": "Grenelefe",
    "state": "Illinois"
  },
  {
    "postalCode": 8373542157,
    "address": "670 Batchelder Street, Iberia, Maine, 1092",
    "city": "Fannett",
    "state": "American Samoa"
  },
  {
    "postalCode": 9176572510,
    "address": "652 Randolph Street, Clayville, South Dakota, 9429",
    "city": "Gallina",
    "state": "Wisconsin"
  },
  {
    "postalCode": 1795260640,
    "address": "165 McKibbin Street, Bluffview, North Carolina, 5501",
    "city": "Coloma",
    "state": "Wyoming"
  },
  {
    "postalCode": 8616155258,
    "address": "745 Cass Place, Clarence, Michigan, 9023",
    "city": "Colton",
    "state": "New Hampshire"
  },
  {
    "postalCode": 1460640542,
    "address": "282 Harrison Avenue, Richford, Utah, 2258",
    "city": "Graball",
    "state": "Vermont"
  },
  {
    "postalCode": 1599284334,
    "address": "483 Catherine Street, Lindisfarne, Nebraska, 3381",
    "city": "Why",
    "state": "Virginia"
  },
  {
    "postalCode": 7378045769,
    "address": "723 Gallatin Place, Rehrersburg, Montana, 6707",
    "city": "Brownlee",
    "state": "Texas"
  },
  {
    "postalCode": 4654024982,
    "address": "228 Nevins Street, Woodlands, Oklahoma, 1191",
    "city": "Oasis",
    "state": "Puerto Rico"
  },
  {
    "postalCode": 6457754380,
    "address": "406 Albany Avenue, Seymour, Louisiana, 3498",
    "city": "Coalmont",
    "state": "Mississippi"
  },
  {
    "postalCode": 1338726705,
    "address": "875 Bergen Place, Boling, Nevada, 7833",
    "city": "Wildwood",
    "state": "Arizona"
  },
  {
    "postalCode": 9537984968,
    "address": "587 Ashford Street, Dana, Rhode Island, 6179",
    "city": "Orick",
    "state": "North Dakota"
  },
  {
    "postalCode": 2716537290,
    "address": "843 Lake Avenue, Freeburn, Ohio, 6405",
    "city": "Joes",
    "state": "Washington"
  }
]